{"type":"FeatureCollection","features":[{"type":"Feature","properties":{"name":"la creu coberta"},"geometry":{"type":"Polygon","coordinates":[[[-0.38124,39.45463],[-0.38281,39.44951],[-0.3836,39.44729],[-0.38582,39.44784],[-0.38961,39.44772],[-0.38932,39.44922],[-0.38886,39.45127],[-0.3888,39.45159],[-0.38867,39.45226],[-0.3885,39.45317],[-0.38774,39.45298],[-0.38689,39.45287],[-0.38467,39.45258],[-0.38447,39.45354],[-0.38416,39.45502],[-0.38124,39.45463]]]}},{"type":"Feature","properties":{"name":"la fonteta s.lluis"},"geometry":{"type":"Polygon","coordinates":[[[-0.36941,39.44772],[-0.36826,39.44819],[-0.36786,39.44761],[-0.36746,39.44714],[-0.36653,39.44711],[-0.36635,39.4471],[-0.36631,39.44709],[-0.36628,39.44708],[-0.36623,39.44707],[-0.36581,39.4469],[-0.3653,39.44673],[-0.36491,39.44657],[-0.3647,39.44648],[-0.36452,39.44636],[-0.36444,39.44609],[-0.36461,39.44587],[-0.36473,39.44566],[-0.36481,39.44562],[-0.36513,39.44575],[-0.36532,39.44556],[-0.36552,39.44437],[-0.36573,39.44373],[-0.36581,39.44339],[-0.36447,39.44306],[-0.36469,39.44252],[-0.3648,39.44204],[-0.36483,39.44175],[-0.36538,39.44191],[-0.36545,39.44161],[-0.36539,39.44157],[-0.36538,39.4415],[-0.36544,39.44138],[-0.36554,39.44099],[-0.36951,39.44148],[-0.36903,39.44546],[-0.36896,39.44612],[-0.36912,39.44718],[-0.36934,39.44759],[-0.36941,39.44772]]]}},{"type":"Feature","properties":{"name":"camí de vera"},"geometry":{"type":"Polygon","coordinates":[[[-0.35156,39.48155],[-0.35442,39.48244],[-0.35441,39.48254],[-0.35412,39.48438],[-0.35389,39.48569],[-0.35643,39.48594],[-0.35627,39.48693],[-0.35741,39.48704],[-0.35759,39.48706],[-0.35756,39.48722],[-0.35747,39.48763],[-0.35726,39.48869],[-0.35901,39.48892],[-0.36026,39.48907],[-0.35967,39.49024],[-0.35789,39.49381],[-0.35762,39.49409],[-0.35762,39.4941],[-0.35751,39.49402],[-0.35736,39.49391],[-0.35722,39.4938],[-0.35719,39.49378],[-0.35712,39.49372],[-0.35707,39.49368],[-0.35699,39.49363],[-0.35693,39.49358],[-0.35688,39.49355],[-0.35683,39.49351],[-0.35669,39.49343],[-0.35645,39.49329],[-0.35629,39.49319],[-0.35622,39.49315],[-0.35614,39.49311],[-0.35613,39.4931],[-0.35595,39.49299],[-0.35578,39.49289],[-0.35564,39.4928],[-0.3556,39.49277],[-0.35554,39.49274],[-0.35549,39.49271],[-0.35538,39.49263],[-0.35531,39.49258],[-0.35526,39.49254],[-0.35515,39.49242],[-0.35501,39.49227],[-0.35493,39.49218],[-0.35483,39.49191],[-0.35476,39.49179],[-0.35452,39.49162],[-0.35444,39.49156],[-0.35434,39.49145],[-0.35417,39.4913],[-0.35402,39.4912],[-0.3539,39.49112],[-0.35381,39.49107],[-0.35375,39.49101],[-0.35366,39.49092],[-0.35358,39.49083],[-0.35348,39.49071],[-0.3534,39.49062],[-0.35335,39.49059],[-0.35324,39.49053],[-0.35315,39.49046],[-0.35309,39.49041],[-0.35298,39.49029],[-0.35287,39.49018],[-0.35269,39.49008],[-0.35256,39.49001],[-0.35244,39.48995],[-0.35236,39.4899],[-0.35228,39.48983],[-0.35221,39.48979],[-0.35219,39.48978],[-0.35216,39.48975],[-0.35215,39.48974],[-0.35213,39.48971],[-0.352,39.48964],[-0.35192,39.48959],[-0.35183,39.48955],[-0.35166,39.48947],[-0.35155,39.48941],[-0.35143,39.48936],[-0.35135,39.48932],[-0.35122,39.48926],[-0.35114,39.48923],[-0.35098,39.48917],[-0.35075,39.48906],[-0.35068,39.48904],[-0.35065,39.48903],[-0.35054,39.48899],[-0.35047,39.48896],[-0.3504,39.48892],[-0.35032,39.48887],[-0.35028,39.48883],[-0.35026,39.48879],[-0.35011,39.48875],[-0.34978,39.48868],[-0.34955,39.48866],[-0.34931,39.48863],[-0.34902,39.4886],[-0.34849,39.48856],[-0.34813,39.48853],[-0.34787,39.4885],[-0.34758,39.48848],[-0.34724,39.48844],[-0.34699,39.48842],[-0.34671,39.48835],[-0.34589,39.48817],[-0.34557,39.48812],[-0.3452,39.48803],[-0.34461,39.48785],[-0.34412,39.48769],[-0.34406,39.48764],[-0.344,39.48754],[-0.34391,39.48735],[-0.34386,39.4873],[-0.3438,39.48727],[-0.34372,39.48725],[-0.3436,39.48724],[-0.34346,39.48722],[-0.34336,39.4872],[-0.34323,39.48717],[-0.34307,39.48714],[-0.34278,39.48707],[-0.34276,39.48706],[-0.35156,39.48155]]]}},{"type":"Feature","properties":{"name":"benimamet"},"geometry":{"type":"Polygon","coordinates":[[[-0.42651,39.495],[-0.42653,39.49506],[-0.42657,39.4951],[-0.42661,39.49518],[-0.42665,39.49525],[-0.42672,39.49534],[-0.42679,39.49542],[-0.42686,39.49551],[-0.42695,39.49565],[-0.42701,39.4957],[-0.42705,39.49581],[-0.42714,39.49595],[-0.4272,39.49605],[-0.42725,39.49611],[-0.42726,39.49614],[-0.42714,39.49618],[-0.4271,39.49621],[-0.42705,39.49624],[-0.42703,39.49625],[-0.42709,39.49632],[-0.42713,39.49634],[-0.42719,39.49639],[-0.42728,39.49647],[-0.42734,39.49651],[-0.42739,39.49655],[-0.42764,39.49677],[-0.42772,39.49685],[-0.42781,39.49688],[-0.42783,39.49687],[-0.42786,39.49686],[-0.42788,39.49686],[-0.42791,39.49684],[-0.42794,39.49683],[-0.42796,39.49684],[-0.42797,39.49684],[-0.42801,39.49686],[-0.42803,39.49687],[-0.42804,39.49689],[-0.42806,39.4969],[-0.42806,39.49693],[-0.42807,39.49696],[-0.42807,39.49697],[-0.42811,39.49703],[-0.42812,39.49705],[-0.42815,39.49711],[-0.42819,39.49719],[-0.42818,39.4972],[-0.42816,39.49721],[-0.42816,39.49724],[-0.42816,39.49725],[-0.42816,39.49727],[-0.42815,39.49728],[-0.42815,39.49729],[-0.42816,39.49731],[-0.42817,39.49733],[-0.42822,39.49743],[-0.42822,39.49745],[-0.4282,39.49748],[-0.42818,39.4975],[-0.42817,39.4975],[-0.42816,39.49752],[-0.42815,39.49756],[-0.42811,39.49764],[-0.42814,39.49767],[-0.42817,39.4977],[-0.4283,39.49782],[-0.42846,39.49798],[-0.42851,39.49803],[-0.42855,39.49805],[-0.42857,39.49808],[-0.42866,39.49818],[-0.42869,39.49822],[-0.4287,39.49824],[-0.42873,39.49836],[-0.42873,39.49841],[-0.42875,39.49849],[-0.42877,39.49861],[-0.42879,39.49869],[-0.42879,39.49874],[-0.42884,39.49879],[-0.4289,39.49888],[-0.42891,39.4989],[-0.42899,39.49899],[-0.42909,39.49897],[-0.42917,39.49915],[-0.42921,39.4992],[-0.42924,39.49925],[-0.42931,39.49941],[-0.42936,39.49962],[-0.4295,39.49992],[-0.42963,39.50016],[-0.42975,39.50043],[-0.42987,39.50071],[-0.42995,39.5009],[-0.43002,39.50109],[-0.43005,39.50125],[-0.43014,39.50156],[-0.43024,39.50187],[-0.43037,39.50221],[-0.43046,39.50245],[-0.43049,39.50266],[-0.43063,39.50294],[-0.43074,39.50329],[-0.43087,39.50373],[-0.43101,39.50412],[-0.4311,39.50458],[-0.43121,39.50492],[-0.43131,39.50516],[-0.43148,39.50546],[-0.43157,39.5058],[-0.43163,39.50609],[-0.43152,39.5061],[-0.43073,39.50624],[-0.42996,39.50636],[-0.42922,39.5065],[-0.42862,39.50661],[-0.42774,39.50676],[-0.42711,39.5069],[-0.4267,39.50698],[-0.42623,39.50705],[-0.42602,39.50709],[-0.42489,39.50728],[-0.42419,39.50741],[-0.42417,39.50741],[-0.42398,39.5073],[-0.42349,39.50706],[-0.42299,39.50679],[-0.42267,39.50663],[-0.42202,39.50632],[-0.42171,39.50616],[-0.42147,39.50601],[-0.4211,39.50581],[-0.42103,39.50579],[-0.42055,39.50554],[-0.41976,39.50513],[-0.41914,39.50484],[-0.41861,39.50454],[-0.41808,39.50425],[-0.4175,39.50389],[-0.41661,39.50346],[-0.41599,39.50313],[-0.41531,39.50296],[-0.41464,39.5028],[-0.41446,39.50275],[-0.41397,39.50255],[-0.41384,39.50252],[-0.41355,39.50239],[-0.41332,39.5023],[-0.41308,39.5022],[-0.41296,39.50215],[-0.41292,39.50212],[-0.4129,39.50211],[-0.41282,39.50209],[-0.41232,39.50183],[-0.41174,39.50153],[-0.41143,39.50139],[-0.41139,39.50122],[-0.41135,39.50112],[-0.4114,39.50101],[-0.41148,39.50082],[-0.41157,39.50062],[-0.41166,39.50044],[-0.4117,39.50033],[-0.41172,39.50027],[-0.4118,39.50003],[-0.41183,39.49993],[-0.41189,39.49979],[-0.41192,39.49968],[-0.41194,39.49958],[-0.412,39.49945],[-0.41202,39.49937],[-0.41203,39.4993],[-0.41206,39.49922],[-0.41215,39.49905],[-0.41225,39.49884],[-0.41227,39.49878],[-0.41228,39.49865],[-0.41235,39.49852],[-0.4124,39.49834],[-0.4124,39.49821],[-0.41243,39.49804],[-0.41244,39.4979],[-0.41245,39.49778],[-0.41244,39.49775],[-0.41244,39.49774],[-0.41244,39.49773],[-0.41252,39.49716],[-0.41267,39.4969],[-0.41282,39.49682],[-0.4126,39.49648],[-0.41438,39.49686],[-0.41605,39.49682],[-0.41873,39.49669],[-0.42147,39.49656],[-0.42321,39.49648],[-0.42362,39.49652],[-0.42458,39.49708],[-0.42535,39.49701],[-0.42536,39.49648],[-0.42535,39.49599],[-0.42525,39.49557],[-0.42594,39.49549],[-0.42597,39.49506],[-0.42612,39.49507],[-0.42651,39.495]]]}},{"type":"Feature","properties":{"name":"beniferri"},"geometry":{"type":"Polygon","coordinates":[[[-0.41244,39.49773],[-0.41243,39.49772],[-0.41239,39.49773],[-0.41233,39.49774],[-0.41226,39.49775],[-0.41222,39.49776],[-0.41217,39.49776],[-0.41212,39.49776],[-0.41207,39.49776],[-0.41202,39.49777],[-0.41196,39.49778],[-0.4119,39.49779],[-0.41183,39.49779],[-0.41179,39.49779],[-0.41175,39.49779],[-0.41172,39.49776],[-0.41169,39.49773],[-0.41163,39.4977],[-0.41154,39.49765],[-0.41145,39.4976],[-0.41139,39.49758],[-0.41136,39.49756],[-0.4113,39.49754],[-0.41126,39.49754],[-0.41121,39.49754],[-0.41116,39.49754],[-0.41112,39.49755],[-0.4111,39.49756],[-0.41107,39.49758],[-0.41105,39.49759],[-0.41103,39.4976],[-0.41098,39.49762],[-0.41094,39.49763],[-0.41092,39.49763],[-0.41091,39.49759],[-0.4109,39.49758],[-0.41085,39.49756],[-0.41078,39.49756],[-0.41071,39.49757],[-0.41062,39.49757],[-0.41049,39.49758],[-0.41044,39.49761],[-0.41033,39.49766],[-0.41027,39.49769],[-0.41021,39.49773],[-0.41016,39.49779],[-0.4101,39.49784],[-0.41006,39.49789],[-0.40998,39.49795],[-0.40989,39.49801],[-0.40981,39.49807],[-0.40975,39.49812],[-0.40971,39.49816],[-0.40965,39.49824],[-0.40956,39.49833],[-0.40952,39.49838],[-0.40946,39.49846],[-0.40942,39.49851],[-0.40938,39.49855],[-0.40931,39.49864],[-0.40921,39.49879],[-0.40916,39.49891],[-0.40888,39.49873],[-0.40876,39.49864],[-0.4086,39.49851],[-0.40847,39.4984],[-0.40843,39.49835],[-0.40841,39.49832],[-0.40837,39.49826],[-0.40835,39.49821],[-0.40833,39.49814],[-0.40831,39.49817],[-0.40824,39.49825],[-0.40821,39.49827],[-0.40818,39.4983],[-0.40814,39.49835],[-0.40795,39.49852],[-0.4077,39.49869],[-0.4074,39.49852],[-0.40711,39.49835],[-0.40693,39.49855],[-0.40677,39.49873],[-0.4067,39.4988],[-0.40663,39.49876],[-0.4062,39.49853],[-0.40596,39.49845],[-0.40563,39.4983],[-0.40521,39.4981],[-0.40513,39.49806],[-0.40511,39.49808],[-0.40508,39.49811],[-0.40504,39.49813],[-0.405,39.49815],[-0.40495,39.49816],[-0.4049,39.49818],[-0.40487,39.49821],[-0.40485,39.49824],[-0.40482,39.49826],[-0.40479,39.49829],[-0.40475,39.49834],[-0.40468,39.49845],[-0.40466,39.49848],[-0.40463,39.49852],[-0.40461,39.49856],[-0.40459,39.49861],[-0.40457,39.49865],[-0.40457,39.49868],[-0.40454,39.49878],[-0.40453,39.49883],[-0.40451,39.49887],[-0.4045,39.49893],[-0.40448,39.49899],[-0.40447,39.49904],[-0.40442,39.49919],[-0.40438,39.4993],[-0.40438,39.49935],[-0.40441,39.49942],[-0.40442,39.49946],[-0.40441,39.4995],[-0.40438,39.49951],[-0.4043,39.49952],[-0.40423,39.49953],[-0.40415,39.49952],[-0.40404,39.49951],[-0.40398,39.49951],[-0.40395,39.4995],[-0.40393,39.49953],[-0.40391,39.49954],[-0.40389,39.49955],[-0.40387,39.49955],[-0.40385,39.49954],[-0.40383,39.49952],[-0.40377,39.49948],[-0.40373,39.49946],[-0.40369,39.49945],[-0.40365,39.49944],[-0.4036,39.49945],[-0.40351,39.49945],[-0.40345,39.49946],[-0.40314,39.49935],[-0.4029,39.4992],[-0.40256,39.49907],[-0.4023,39.49901],[-0.40219,39.49897],[-0.40206,39.49893],[-0.40195,39.49892],[-0.40193,39.49894],[-0.4018,39.49893],[-0.40159,39.49895],[-0.40148,39.49897],[-0.39824,39.49602],[-0.39972,39.4952],[-0.40008,39.49568],[-0.4025,39.49459],[-0.40826,39.49216],[-0.40932,39.49356],[-0.41135,39.49602],[-0.4126,39.49648],[-0.41282,39.49682],[-0.41267,39.4969],[-0.41252,39.49716],[-0.41244,39.49773]]]}},{"type":"Feature","properties":{"name":"ciutat fallera"},"geometry":{"type":"Polygon","coordinates":[[[-0.38889,39.50024],[-0.39145,39.49874],[-0.394,39.4971],[-0.39603,39.49587],[-0.39664,39.49551],[-0.39695,39.49581],[-0.39759,39.49542],[-0.39824,39.49602],[-0.40148,39.49897],[-0.40145,39.49898],[-0.40136,39.499],[-0.40128,39.49901],[-0.40123,39.49905],[-0.40121,39.49912],[-0.4012,39.49921],[-0.40117,39.49933],[-0.40117,39.49946],[-0.40117,39.49954],[-0.40117,39.49962],[-0.40114,39.49971],[-0.40113,39.49974],[-0.40112,39.49977],[-0.40107,39.49986],[-0.40107,39.49987],[-0.40101,39.49987],[-0.40061,39.49989],[-0.40036,39.49989],[-0.40033,39.49991],[-0.4003,39.49995],[-0.4002,39.49991],[-0.39983,39.49988],[-0.39976,39.49988],[-0.39974,39.4999],[-0.39974,39.49994],[-0.39972,39.49996],[-0.3995,39.49994],[-0.39942,39.49993],[-0.39933,39.49991],[-0.39927,39.49991],[-0.39926,39.49994],[-0.39923,39.50002],[-0.39919,39.50012],[-0.39916,39.50013],[-0.39912,39.50012],[-0.39908,39.50011],[-0.39901,39.50009],[-0.39891,39.50007],[-0.39881,39.50004],[-0.39874,39.50003],[-0.39864,39.5],[-0.39852,39.49998],[-0.3984,39.49995],[-0.39826,39.49991],[-0.39805,39.49986],[-0.39759,39.49975],[-0.39752,39.4998],[-0.3975,39.4998],[-0.39741,39.49989],[-0.39738,39.49995],[-0.39735,39.50005],[-0.39729,39.50018],[-0.39726,39.5003],[-0.39721,39.5004],[-0.39716,39.50049],[-0.39717,39.50057],[-0.39709,39.50066],[-0.39703,39.50085],[-0.397,39.50102],[-0.39694,39.50112],[-0.3969,39.50124],[-0.39689,39.5013],[-0.39686,39.50139],[-0.39683,39.50147],[-0.39676,39.50155],[-0.39675,39.50165],[-0.39678,39.50175],[-0.39675,39.50175],[-0.39313,39.50433],[-0.38889,39.50024]]]}},{"type":"Feature","properties":{"name":"torrefiel"},"geometry":{"type":"Polygon","coordinates":[[[-0.37122,39.49839],[-0.3718,39.49703],[-0.37136,39.49692],[-0.37078,39.49678],[-0.37103,39.49631],[-0.37023,39.49601],[-0.37105,39.49483],[-0.37163,39.49514],[-0.37195,39.49468],[-0.37225,39.49442],[-0.37253,39.49431],[-0.37283,39.49392],[-0.37336,39.49308],[-0.37388,39.49206],[-0.37635,39.49156],[-0.37745,39.49133],[-0.37857,39.49109],[-0.3805,39.49066],[-0.38216,39.49029],[-0.38255,39.49134],[-0.38328,39.49325],[-0.38147,39.49356],[-0.3801,39.49388],[-0.38024,39.49474],[-0.38069,39.49578],[-0.3812,39.49693],[-0.38139,39.49868],[-0.37981,39.49899],[-0.37778,39.49921],[-0.37664,39.4993],[-0.37501,39.49924],[-0.37303,39.49889],[-0.37122,39.49839]]]}},{"type":"Feature","properties":{"name":"tormos"},"geometry":{"type":"Polygon","coordinates":[[[-0.38216,39.49029],[-0.3805,39.49066],[-0.37857,39.49109],[-0.37745,39.49133],[-0.37635,39.49156],[-0.37388,39.49206],[-0.37588,39.48943],[-0.3766,39.48843],[-0.37674,39.48822],[-0.377,39.48784],[-0.37727,39.4875],[-0.37773,39.48691],[-0.37814,39.48635],[-0.379,39.48644],[-0.37945,39.48771],[-0.38019,39.48757],[-0.38164,39.48728],[-0.3837,39.48842],[-0.38446,39.48877],[-0.38554,39.48927],[-0.38573,39.48943],[-0.38216,39.49029]]]}},{"type":"Feature","properties":{"name":"marxalenes"},"geometry":{"type":"Polygon","coordinates":[[[-0.38573,39.48943],[-0.38554,39.48927],[-0.38446,39.48877],[-0.3837,39.48842],[-0.38164,39.48728],[-0.38019,39.48757],[-0.37945,39.48771],[-0.379,39.48644],[-0.37814,39.48635],[-0.37853,39.4856],[-0.37867,39.48485],[-0.3788,39.48385],[-0.37911,39.48197],[-0.38023,39.48212],[-0.38105,39.48223],[-0.38366,39.48391],[-0.38522,39.48503],[-0.38731,39.4866],[-0.38755,39.48681],[-0.38947,39.48856],[-0.38692,39.48916],[-0.38616,39.48933],[-0.38573,39.48943]]]}},{"type":"Feature","properties":{"name":"el calvari"},"geometry":{"type":"Polygon","coordinates":[[[-0.38947,39.48856],[-0.38755,39.48681],[-0.38731,39.4866],[-0.38745,39.48631],[-0.38828,39.48598],[-0.38859,39.48662],[-0.38895,39.48673],[-0.38922,39.48593],[-0.39012,39.48554],[-0.39047,39.48604],[-0.39065,39.48611],[-0.39122,39.48632],[-0.39258,39.48573],[-0.39343,39.48695],[-0.39328,39.48702],[-0.39207,39.48755],[-0.39052,39.48823],[-0.38947,39.48856]]]}},{"type":"Feature","properties":{"name":"morvedre"},"geometry":{"type":"Polygon","coordinates":[[[-0.36912,39.48739],[-0.36983,39.48633],[-0.37061,39.48518],[-0.37085,39.48482],[-0.37176,39.48349],[-0.3723,39.48253],[-0.37309,39.4813],[-0.37434,39.4795],[-0.37504,39.48004],[-0.37663,39.48101],[-0.37795,39.48162],[-0.37911,39.48197],[-0.3788,39.48385],[-0.37867,39.48485],[-0.37853,39.4856],[-0.37814,39.48635],[-0.37773,39.48691],[-0.37727,39.4875],[-0.37592,39.48695],[-0.37627,39.48635],[-0.37481,39.48649],[-0.37273,39.48669],[-0.37219,39.48669],[-0.37155,39.48649],[-0.37099,39.48792],[-0.36912,39.48739]]]}},{"type":"Feature","properties":{"name":"trinitat"},"geometry":{"type":"Polygon","coordinates":[[[-0.36886,39.48626],[-0.36869,39.48656],[-0.36761,39.48628],[-0.36655,39.48601],[-0.36539,39.48571],[-0.36471,39.48625],[-0.36354,39.48539],[-0.36357,39.48522],[-0.36381,39.48474],[-0.36467,39.48297],[-0.36643,39.47938],[-0.36744,39.47731],[-0.36825,39.47706],[-0.36885,39.47647],[-0.36977,39.47675],[-0.37059,39.47721],[-0.37256,39.47843],[-0.3728,39.47857],[-0.37413,39.47934],[-0.37434,39.4795],[-0.37309,39.4813],[-0.3723,39.48253],[-0.37176,39.48349],[-0.37085,39.48482],[-0.37061,39.48518],[-0.36983,39.48633],[-0.36944,39.48623],[-0.36933,39.4864],[-0.36886,39.48626]]]}},{"type":"Feature","properties":{"name":"el carme"},"geometry":{"type":"Polygon","coordinates":[[[-0.38105,39.48223],[-0.38023,39.48212],[-0.37911,39.48197],[-0.37795,39.48162],[-0.37663,39.48101],[-0.37504,39.48004],[-0.37434,39.4795],[-0.37413,39.47934],[-0.3762,39.4789],[-0.37688,39.47738],[-0.37688,39.47728],[-0.3772,39.47723],[-0.37724,39.47705],[-0.37794,39.47701],[-0.37792,39.47691],[-0.37798,39.47665],[-0.37848,39.47665],[-0.37917,39.47655],[-0.38044,39.4763],[-0.38113,39.47623],[-0.38192,39.47614],[-0.38246,39.47599],[-0.3831,39.47585],[-0.38374,39.47576],[-0.38376,39.47549],[-0.38417,39.47555],[-0.38419,39.47577],[-0.38386,39.4776],[-0.38373,39.47834],[-0.38302,39.48028],[-0.3834,39.48116],[-0.38105,39.48223]]]}},{"type":"Feature","properties":{"name":"el botànic"},"geometry":{"type":"Polygon","coordinates":[[[-0.38302,39.48028],[-0.38373,39.47834],[-0.38386,39.4776],[-0.38419,39.47577],[-0.38417,39.47555],[-0.38398,39.47374],[-0.38402,39.47279],[-0.38405,39.47213],[-0.38406,39.47189],[-0.38393,39.47154],[-0.38356,39.47059],[-0.38345,39.47033],[-0.38409,39.46935],[-0.38438,39.46976],[-0.38541,39.47123],[-0.38593,39.47195],[-0.38705,39.4735],[-0.38758,39.47422],[-0.38777,39.47449],[-0.38785,39.4746],[-0.38821,39.47509],[-0.38865,39.47571],[-0.38944,39.47681],[-0.38996,39.47754],[-0.39047,39.47825],[-0.38856,39.47872],[-0.38737,39.47921],[-0.38671,39.47953],[-0.38615,39.47981],[-0.38348,39.48112],[-0.3834,39.48116],[-0.38302,39.48028]]]}},{"type":"Feature","properties":{"name":"exposició"},"geometry":{"type":"Polygon","coordinates":[[[-0.36513,39.47901],[-0.36339,39.47851],[-0.35822,39.477],[-0.35888,39.47566],[-0.35944,39.4745],[-0.35997,39.47466],[-0.36061,39.47331],[-0.36377,39.47421],[-0.36458,39.47381],[-0.36602,39.47311],[-0.36885,39.47647],[-0.36825,39.47706],[-0.36744,39.47731],[-0.36643,39.47938],[-0.36513,39.47901]]]}},{"type":"Feature","properties":{"name":"la xerea"},"geometry":{"type":"Polygon","coordinates":[[[-0.37059,39.47721],[-0.36977,39.47675],[-0.36885,39.47647],[-0.36602,39.47311],[-0.36838,39.47208],[-0.36866,39.47188],[-0.37006,39.47234],[-0.36999,39.47267],[-0.37068,39.47281],[-0.37086,39.47221],[-0.37159,39.4723],[-0.3718,39.47148],[-0.37254,39.47154],[-0.37369,39.47185],[-0.3743,39.47188],[-0.37463,39.47182],[-0.37467,39.47192],[-0.37496,39.47184],[-0.3754,39.47167],[-0.37555,39.47214],[-0.37551,39.47258],[-0.37525,39.47301],[-0.37439,39.4727],[-0.37423,39.47351],[-0.37424,39.47394],[-0.37454,39.47401],[-0.3744,39.47435],[-0.37422,39.47462],[-0.37417,39.47483],[-0.37379,39.4754],[-0.37369,39.47536],[-0.37359,39.47549],[-0.37348,39.47584],[-0.37344,39.4763],[-0.37325,39.47627],[-0.37314,39.47663],[-0.37299,39.47681],[-0.37293,39.47694],[-0.37162,39.47676],[-0.37059,39.47721]]]}},{"type":"Feature","properties":{"name":"el mercat"},"geometry":{"type":"Polygon","coordinates":[[[-0.37917,39.47655],[-0.37917,39.47615],[-0.37927,39.47563],[-0.3791,39.47562],[-0.37877,39.47561],[-0.37832,39.47571],[-0.37771,39.47557],[-0.37768,39.47539],[-0.3769,39.47537],[-0.37706,39.47442],[-0.37685,39.47426],[-0.3771,39.47404],[-0.37694,39.47392],[-0.3767,39.47393],[-0.37608,39.47389],[-0.37567,39.47381],[-0.37685,39.47222],[-0.37781,39.47091],[-0.37843,39.47138],[-0.37886,39.47156],[-0.37921,39.47182],[-0.37979,39.472],[-0.37982,39.47241],[-0.38095,39.47232],[-0.38099,39.47245],[-0.38072,39.47279],[-0.38046,39.47314],[-0.38065,39.47319],[-0.38105,39.47345],[-0.38116,39.4736],[-0.38122,39.47378],[-0.38121,39.474],[-0.38131,39.47442],[-0.38125,39.47468],[-0.38099,39.4751],[-0.38081,39.47538],[-0.38106,39.47543],[-0.38113,39.47623],[-0.38044,39.4763],[-0.37917,39.47655]]]}},{"type":"Feature","properties":{"name":"el pilar"},"geometry":{"type":"Polygon","coordinates":[[[-0.38113,39.47623],[-0.38106,39.47543],[-0.38081,39.47538],[-0.38099,39.4751],[-0.38125,39.47468],[-0.38131,39.47442],[-0.38121,39.474],[-0.38122,39.47378],[-0.38116,39.4736],[-0.38105,39.47345],[-0.38065,39.47319],[-0.38046,39.47314],[-0.38072,39.47279],[-0.38099,39.47245],[-0.38095,39.47232],[-0.37982,39.47241],[-0.37979,39.472],[-0.37975,39.47122],[-0.38119,39.47085],[-0.38146,39.47089],[-0.38268,39.47089],[-0.38356,39.47059],[-0.38393,39.47154],[-0.38406,39.47189],[-0.38405,39.47213],[-0.38402,39.47279],[-0.38398,39.47374],[-0.38417,39.47555],[-0.38376,39.47549],[-0.38374,39.47576],[-0.3831,39.47585],[-0.38246,39.47599],[-0.38192,39.47614],[-0.38113,39.47623]]]}},{"type":"Feature","properties":{"name":"el pla del remei"},"geometry":{"type":"Polygon","coordinates":[[[-0.36602,39.47311],[-0.36454,39.47121],[-0.36378,39.47024],[-0.36313,39.46942],[-0.36578,39.46836],[-0.36693,39.46787],[-0.36807,39.46739],[-0.36917,39.46693],[-0.3702,39.46649],[-0.37121,39.46607],[-0.37385,39.46496],[-0.37446,39.46613],[-0.37492,39.46713],[-0.37388,39.46781],[-0.37291,39.4685],[-0.37113,39.46974],[-0.37042,39.47031],[-0.36866,39.47188],[-0.36838,39.47208],[-0.36602,39.47311]]]}},{"type":"Feature","properties":{"name":"l'illa perduda"},"geometry":{"type":"Polygon","coordinates":[[[-0.34196,39.47223],[-0.33975,39.47156],[-0.33878,39.47124],[-0.33944,39.46989],[-0.34014,39.4701],[-0.34024,39.46991],[-0.33982,39.46978],[-0.3401,39.46921],[-0.3398,39.46912],[-0.33986,39.469],[-0.33876,39.46867],[-0.33868,39.46883],[-0.33848,39.46881],[-0.33498,39.46855],[-0.33543,39.46595],[-0.34178,39.46782],[-0.34353,39.46831],[-0.34357,39.46848],[-0.34371,39.46865],[-0.34305,39.46997],[-0.34264,39.47083],[-0.34196,39.47223]]]}},{"type":"Feature","properties":{"name":"arrancapins"},"geometry":{"type":"Polygon","coordinates":[[[-0.38593,39.47195],[-0.38541,39.47123],[-0.38438,39.46976],[-0.38409,39.46935],[-0.383,39.46781],[-0.38256,39.46721],[-0.38222,39.46673],[-0.38161,39.46583],[-0.38129,39.46534],[-0.37995,39.46339],[-0.37808,39.46304],[-0.37863,39.46157],[-0.37873,39.46131],[-0.38124,39.45463],[-0.38156,39.45522],[-0.38209,39.45582],[-0.3825,39.45624],[-0.38355,39.45776],[-0.383,39.45992],[-0.38329,39.45998],[-0.38463,39.45941],[-0.38577,39.46103],[-0.38694,39.46267],[-0.38781,39.4639],[-0.38819,39.46442],[-0.38996,39.46694],[-0.39003,39.46701],[-0.39154,39.46908],[-0.39149,39.46909],[-0.39009,39.4694],[-0.38864,39.46971],[-0.38748,39.47069],[-0.38593,39.47195]]]}},{"type":"Feature","properties":{"name":"la roqueta"},"geometry":{"type":"Polygon","coordinates":[[[-0.38409,39.46935],[-0.38345,39.47033],[-0.38138,39.46873],[-0.38089,39.46855],[-0.37985,39.46815],[-0.37886,39.46791],[-0.37695,39.46745],[-0.37653,39.46735],[-0.37686,39.46643],[-0.37808,39.46304],[-0.37995,39.46339],[-0.38129,39.46534],[-0.38161,39.46583],[-0.38222,39.46673],[-0.38256,39.46721],[-0.383,39.46781],[-0.38409,39.46935]]]}},{"type":"Feature","properties":{"name":"la raiosa"},"geometry":{"type":"Polygon","coordinates":[[[-0.38801,39.46219],[-0.38694,39.46267],[-0.38577,39.46103],[-0.38463,39.45941],[-0.38329,39.45998],[-0.383,39.45992],[-0.38355,39.45776],[-0.3825,39.45624],[-0.38209,39.45582],[-0.38156,39.45522],[-0.38124,39.45463],[-0.38416,39.45502],[-0.38447,39.45354],[-0.38554,39.45379],[-0.38697,39.45473],[-0.38725,39.45488],[-0.38863,39.45552],[-0.39032,39.45643],[-0.39029,39.45647],[-0.38821,39.45956],[-0.38889,39.45994],[-0.38754,39.46152],[-0.38801,39.46219]]]}},{"type":"Feature","properties":{"name":"safranar"},"geometry":{"type":"Polygon","coordinates":[[[-0.40235,39.45821],[-0.40024,39.46016],[-0.39874,39.46152],[-0.39732,39.4629],[-0.39612,39.46176],[-0.39418,39.46007],[-0.39315,39.45907],[-0.39211,39.45814],[-0.39029,39.45647],[-0.39357,39.45628],[-0.39471,39.45623],[-0.3958,39.45606],[-0.39678,39.45571],[-0.39744,39.45525],[-0.3983,39.45458],[-0.39949,39.45547],[-0.3991,39.4558],[-0.40235,39.45821]]]}},{"type":"Feature","properties":{"name":"sant llorens"},"geometry":{"type":"Polygon","coordinates":[[[-0.35762,39.4941],[-0.35762,39.49409],[-0.35789,39.49381],[-0.35936,39.49086],[-0.35967,39.49024],[-0.36026,39.48907],[-0.36055,39.48848],[-0.36184,39.48854],[-0.36229,39.48855],[-0.36305,39.48795],[-0.36289,39.48781],[-0.36337,39.48739],[-0.36399,39.48683],[-0.36527,39.48783],[-0.36593,39.4883],[-0.36473,39.48919],[-0.36538,39.48975],[-0.36594,39.48942],[-0.36708,39.48876],[-0.369,39.49029],[-0.36881,39.49045],[-0.36903,39.49061],[-0.36831,39.4912],[-0.36915,39.49181],[-0.36805,39.49273],[-0.36725,39.49338],[-0.36836,39.49415],[-0.36782,39.49463],[-0.36812,39.49484],[-0.36769,39.49524],[-0.3674,39.4955],[-0.36663,39.49494],[-0.36634,39.49518],[-0.36824,39.49659],[-0.3678,39.49708],[-0.3691,39.49761],[-0.36813,39.49991],[-0.36928,39.5002],[-0.3686,39.50183],[-0.36829,39.50175],[-0.36767,39.50338],[-0.3672,39.50425],[-0.3671,39.5042],[-0.36691,39.50412],[-0.36681,39.5041],[-0.36669,39.50405],[-0.36661,39.504],[-0.3665,39.50392],[-0.36638,39.50386],[-0.36624,39.50381],[-0.3661,39.50376],[-0.36601,39.50374],[-0.36585,39.50372],[-0.36565,39.5037],[-0.36553,39.50369],[-0.36549,39.5037],[-0.36546,39.50373],[-0.36544,39.50377],[-0.36543,39.50382],[-0.36539,39.50393],[-0.36537,39.50398],[-0.36535,39.50403],[-0.36533,39.50405],[-0.36531,39.50406],[-0.36527,39.50404],[-0.36517,39.50398],[-0.36505,39.50391],[-0.36496,39.50385],[-0.36485,39.50382],[-0.36473,39.5038],[-0.36462,39.50376],[-0.36452,39.50371],[-0.36443,39.50366],[-0.36422,39.50358],[-0.36404,39.5035],[-0.3639,39.50343],[-0.36373,39.50335],[-0.3636,39.50331],[-0.3635,39.50326],[-0.36345,39.50323],[-0.36336,39.50319],[-0.36323,39.50314],[-0.36315,39.5031],[-0.36312,39.50307],[-0.36305,39.50304],[-0.36298,39.50299],[-0.36293,39.50295],[-0.3629,39.50291],[-0.3629,39.50287],[-0.36291,39.50282],[-0.36291,39.50279],[-0.3629,39.50278],[-0.36278,39.50276],[-0.36275,39.50275],[-0.36272,39.50275],[-0.36269,39.50274],[-0.36265,39.50271],[-0.36257,39.50264],[-0.36244,39.50254],[-0.36234,39.50248],[-0.3623,39.50245],[-0.36215,39.50235],[-0.36204,39.50227],[-0.36194,39.50221],[-0.36189,39.50217],[-0.36177,39.5021],[-0.36167,39.50202],[-0.36162,39.502],[-0.36158,39.50203],[-0.36148,39.5021],[-0.36141,39.50215],[-0.36134,39.50222],[-0.36124,39.5023],[-0.36116,39.50236],[-0.36107,39.50244],[-0.36103,39.50249],[-0.36096,39.50257],[-0.36093,39.50261],[-0.36084,39.50273],[-0.36077,39.50285],[-0.36073,39.5029],[-0.36067,39.50301],[-0.36061,39.5031],[-0.36055,39.5032],[-0.36052,39.50325],[-0.3605,39.50329],[-0.36048,39.50331],[-0.3604,39.50329],[-0.36026,39.50329],[-0.36002,39.50335],[-0.35977,39.5034],[-0.3596,39.50345],[-0.35958,39.5034],[-0.35955,39.50338],[-0.35943,39.50332],[-0.35934,39.50328],[-0.3593,39.50326],[-0.35922,39.50324],[-0.35884,39.50313],[-0.35857,39.50301],[-0.3584,39.50294],[-0.35817,39.50286],[-0.35796,39.50279],[-0.35787,39.50275],[-0.3577,39.50269],[-0.35756,39.50264],[-0.3574,39.50258],[-0.35731,39.50255],[-0.35714,39.50248],[-0.35704,39.50244],[-0.35688,39.50238],[-0.35667,39.5023],[-0.35625,39.50211],[-0.35595,39.50197],[-0.356,39.50191],[-0.35619,39.50167],[-0.35624,39.5016],[-0.35651,39.50123],[-0.35655,39.50124],[-0.35666,39.50106],[-0.35639,39.5009],[-0.35603,39.50068],[-0.35581,39.50058],[-0.35545,39.50037],[-0.35531,39.50027],[-0.35504,39.50012],[-0.35484,39.49997],[-0.35479,39.49968],[-0.35498,39.4995],[-0.35533,39.4992],[-0.35553,39.49904],[-0.35575,39.49887],[-0.35588,39.49877],[-0.35596,39.4987],[-0.356,39.49865],[-0.35608,39.49859],[-0.35618,39.49852],[-0.35624,39.49849],[-0.35648,39.49829],[-0.35665,39.49812],[-0.3567,39.49807],[-0.35679,39.49798],[-0.35694,39.49786],[-0.35707,39.49776],[-0.35703,39.49771],[-0.35681,39.49755],[-0.35671,39.49746],[-0.35644,39.49735],[-0.35616,39.49725],[-0.35605,39.49721],[-0.35587,39.49713],[-0.35577,39.4971],[-0.35567,39.49706],[-0.35564,39.49705],[-0.35565,39.49703],[-0.35574,39.49698],[-0.35595,39.49674],[-0.35611,39.49655],[-0.35634,39.49628],[-0.35676,39.49581],[-0.35704,39.49544],[-0.35716,39.49527],[-0.35737,39.49503],[-0.35753,39.49485],[-0.35764,39.49474],[-0.35777,39.49464],[-0.35787,39.49459],[-0.35793,39.49451],[-0.35791,39.49442],[-0.35788,39.49434],[-0.35787,39.49433],[-0.35775,39.49419],[-0.35771,39.49415],[-0.35764,39.49412],[-0.35762,39.4941]]]}},{"type":"Feature","properties":{"name":"en corts"},"geometry":{"type":"Polygon","coordinates":[[[-0.3688,39.45883],[-0.36855,39.45829],[-0.36838,39.45796],[-0.368,39.45718],[-0.36796,39.45709],[-0.36736,39.45623],[-0.36676,39.45528],[-0.36852,39.45449],[-0.36803,39.4536],[-0.36887,39.45331],[-0.3689,39.45336],[-0.37081,39.45338],[-0.37135,39.45318],[-0.37113,39.45229],[-0.3716,39.45089],[-0.37238,39.45199],[-0.37356,39.45369],[-0.37551,39.45654],[-0.37577,39.45692],[-0.37397,39.45766],[-0.37144,39.45873],[-0.36924,39.45963],[-0.3688,39.45883]]]}},{"type":"Feature","properties":{"name":"malilla"},"geometry":{"type":"Polygon","coordinates":[[[-0.37577,39.45692],[-0.37551,39.45654],[-0.37356,39.45369],[-0.37238,39.45199],[-0.3716,39.45089],[-0.37097,39.44998],[-0.37054,39.44938],[-0.3695,39.44787],[-0.36941,39.44772],[-0.36934,39.44759],[-0.36912,39.44718],[-0.36896,39.44612],[-0.36903,39.44546],[-0.36951,39.44148],[-0.36954,39.44127],[-0.37017,39.43552],[-0.37809,39.4363],[-0.38715,39.43719],[-0.38493,39.44354],[-0.3836,39.44729],[-0.38281,39.44951],[-0.38124,39.45463],[-0.37984,39.45523],[-0.37843,39.45583],[-0.37718,39.45636],[-0.37577,39.45692]]]}},{"type":"Feature","properties":{"name":"jaume roig"},"geometry":{"type":"Polygon","coordinates":[[[-0.36229,39.48483],[-0.36284,39.48377],[-0.36137,39.48276],[-0.36116,39.48261],[-0.35949,39.48141],[-0.36031,39.48081],[-0.36076,39.48044],[-0.36089,39.48019],[-0.36125,39.47949],[-0.36443,39.48044],[-0.36513,39.47901],[-0.36643,39.47938],[-0.36467,39.48297],[-0.36381,39.48474],[-0.36357,39.48522],[-0.36229,39.48483]]]}},{"type":"Feature","properties":{"name":"benimaclet"},"geometry":{"type":"Polygon","coordinates":[[[-0.35901,39.48892],[-0.35726,39.48869],[-0.35747,39.48763],[-0.35756,39.48722],[-0.35759,39.48706],[-0.35741,39.48704],[-0.35627,39.48693],[-0.35643,39.48594],[-0.35389,39.48569],[-0.35412,39.48438],[-0.35442,39.48244],[-0.35156,39.48155],[-0.35265,39.48071],[-0.35332,39.4802],[-0.35389,39.47959],[-0.35467,39.47854],[-0.35489,39.47809],[-0.35564,39.47851],[-0.3569,39.47946],[-0.35772,39.48008],[-0.35949,39.48141],[-0.36116,39.48261],[-0.36137,39.48276],[-0.36284,39.48377],[-0.36229,39.48483],[-0.36357,39.48522],[-0.36354,39.48539],[-0.36471,39.48625],[-0.36539,39.48571],[-0.36655,39.48601],[-0.36761,39.48628],[-0.36869,39.48656],[-0.36886,39.48626],[-0.36933,39.4864],[-0.36944,39.48623],[-0.36983,39.48633],[-0.36912,39.48739],[-0.36842,39.48797],[-0.36708,39.48876],[-0.36538,39.48975],[-0.36473,39.48919],[-0.36593,39.4883],[-0.36527,39.48783],[-0.36399,39.48683],[-0.36289,39.48781],[-0.36305,39.48795],[-0.36229,39.48855],[-0.36055,39.48848],[-0.36026,39.48907],[-0.35901,39.48892]]]}},{"type":"Feature","properties":{"name":"ciutat universitaria"},"geometry":{"type":"Polygon","coordinates":[[[-0.35949,39.48141],[-0.35772,39.48008],[-0.3569,39.47946],[-0.35564,39.47851],[-0.35489,39.47809],[-0.35467,39.47854],[-0.35274,39.47799],[-0.35375,39.47581],[-0.35556,39.47629],[-0.35657,39.47656],[-0.35822,39.477],[-0.36339,39.47851],[-0.36513,39.47901],[-0.36443,39.48044],[-0.36125,39.47949],[-0.36089,39.48019],[-0.36076,39.48044],[-0.36031,39.48081],[-0.35949,39.48141]]]}},{"type":"Feature","properties":{"name":"benicalap"},"geometry":{"type":"Polygon","coordinates":[[[-0.38139,39.49868],[-0.3812,39.49693],[-0.38069,39.49578],[-0.38024,39.49474],[-0.3801,39.49388],[-0.38147,39.49356],[-0.38328,39.49325],[-0.38255,39.49134],[-0.38216,39.49029],[-0.38573,39.48943],[-0.38616,39.48933],[-0.38692,39.48916],[-0.38947,39.48856],[-0.39052,39.48823],[-0.39207,39.48755],[-0.39328,39.48702],[-0.39343,39.48695],[-0.39258,39.48573],[-0.39525,39.48458],[-0.39601,39.48585],[-0.39621,39.4861],[-0.39737,39.48754],[-0.4025,39.49459],[-0.40008,39.49568],[-0.39972,39.4952],[-0.39824,39.49602],[-0.39759,39.49542],[-0.39695,39.49581],[-0.39664,39.49551],[-0.39603,39.49587],[-0.394,39.4971],[-0.39145,39.49874],[-0.38889,39.50024],[-0.38614,39.49759],[-0.38499,39.49785],[-0.38139,39.49868]]]}},{"type":"Feature","properties":{"name":"sant antoni"},"geometry":{"type":"Polygon","coordinates":[[[-0.37388,39.49206],[-0.37374,39.49197],[-0.37272,39.49126],[-0.3713,39.49021],[-0.37013,39.48932],[-0.36842,39.48797],[-0.36912,39.48739],[-0.37099,39.48792],[-0.37155,39.48649],[-0.37219,39.48669],[-0.37273,39.48669],[-0.37481,39.48649],[-0.37627,39.48635],[-0.37592,39.48695],[-0.37727,39.4875],[-0.377,39.48784],[-0.37674,39.48822],[-0.3766,39.48843],[-0.37588,39.48943],[-0.37388,39.49206]]]}},{"type":"Feature","properties":{"name":"mestalla"},"geometry":{"type":"Polygon","coordinates":[[[-0.35822,39.477],[-0.35657,39.47656],[-0.35556,39.47629],[-0.35375,39.47581],[-0.35248,39.47545],[-0.35319,39.47399],[-0.35441,39.47148],[-0.35485,39.47052],[-0.35545,39.46932],[-0.35567,39.4689],[-0.35654,39.4671],[-0.35683,39.46651],[-0.35712,39.46592],[-0.35801,39.46409],[-0.35867,39.46371],[-0.35997,39.46343],[-0.36015,39.46414],[-0.36107,39.46591],[-0.36177,39.4672],[-0.3624,39.46838],[-0.36313,39.46942],[-0.36378,39.47024],[-0.36454,39.47121],[-0.36602,39.47311],[-0.36458,39.47381],[-0.36377,39.47421],[-0.36061,39.47331],[-0.35997,39.47466],[-0.35944,39.4745],[-0.35888,39.47566],[-0.35822,39.477]]]}},{"type":"Feature","properties":{"name":"albors"},"geometry":{"type":"Polygon","coordinates":[[[-0.35441,39.47148],[-0.3524,39.47087],[-0.35116,39.4705],[-0.34939,39.46996],[-0.34836,39.46966],[-0.34875,39.46871],[-0.34985,39.46903],[-0.35032,39.46783],[-0.35122,39.46554],[-0.35311,39.46609],[-0.35424,39.46642],[-0.35548,39.46678],[-0.35643,39.46707],[-0.35654,39.4671],[-0.35567,39.4689],[-0.35545,39.46932],[-0.35485,39.47052],[-0.35441,39.47148]]]}},{"type":"Feature","properties":{"name":"l'amistat"},"geometry":{"type":"Polygon","coordinates":[[[-0.35248,39.47545],[-0.35059,39.47477],[-0.34944,39.47443],[-0.34776,39.47397],[-0.34813,39.4731],[-0.34872,39.47165],[-0.34885,39.47131],[-0.34911,39.47067],[-0.34939,39.46996],[-0.35116,39.4705],[-0.3524,39.47087],[-0.35441,39.47148],[-0.35319,39.47399],[-0.35248,39.47545]]]}},{"type":"Feature","properties":{"name":"betero"},"geometry":{"type":"Polygon","coordinates":[[[-0.33338,39.47641],[-0.33373,39.47484],[-0.33385,39.47436],[-0.33416,39.47281],[-0.33432,39.47155],[-0.33473,39.47106],[-0.33499,39.47008],[-0.33501,39.4695],[-0.33498,39.46855],[-0.33848,39.46881],[-0.33868,39.46883],[-0.33876,39.46867],[-0.33986,39.469],[-0.3398,39.46912],[-0.3401,39.46921],[-0.33982,39.46978],[-0.34024,39.46991],[-0.34014,39.4701],[-0.33944,39.46989],[-0.33878,39.47124],[-0.33821,39.47107],[-0.33777,39.47195],[-0.33744,39.47269],[-0.3371,39.47366],[-0.33551,39.477],[-0.33338,39.47641]]]}},{"type":"Feature","properties":{"name":"el cabanyal"},"geometry":{"type":"Polygon","coordinates":[[[-0.33338,39.47641],[-0.32992,39.47546],[-0.32871,39.4751],[-0.3277,39.47475],[-0.32646,39.47458],[-0.32457,39.47456],[-0.32381,39.47265],[-0.32306,39.46806],[-0.32273,39.46549],[-0.32261,39.46308],[-0.32421,39.46305],[-0.3273,39.46309],[-0.329,39.46292],[-0.33016,39.46282],[-0.33116,39.46293],[-0.33419,39.46328],[-0.3365,39.46367],[-0.33543,39.46595],[-0.33498,39.46855],[-0.33501,39.4695],[-0.33499,39.47008],[-0.33473,39.47106],[-0.33432,39.47155],[-0.33416,39.47281],[-0.33385,39.47436],[-0.33373,39.47484],[-0.33338,39.47641]]]}},{"type":"Feature","properties":{"name":"la carrasca"},"geometry":{"type":"Polygon","coordinates":[[[-0.33151,39.48561],[-0.33254,39.48046],[-0.33282,39.47919],[-0.33338,39.47641],[-0.33551,39.477],[-0.3371,39.47366],[-0.33744,39.47269],[-0.33777,39.47195],[-0.33821,39.47107],[-0.33878,39.47124],[-0.33975,39.47156],[-0.3394,39.47227],[-0.3404,39.47254],[-0.34,39.47337],[-0.34144,39.47379],[-0.34709,39.47549],[-0.34705,39.47559],[-0.34635,39.47734],[-0.34856,39.47732],[-0.34847,39.47826],[-0.35126,39.4782],[-0.35151,39.47761],[-0.35274,39.47799],[-0.35467,39.47854],[-0.35389,39.47959],[-0.35332,39.4802],[-0.35265,39.48071],[-0.35156,39.48155],[-0.34276,39.48706],[-0.34266,39.48705],[-0.34214,39.487],[-0.34191,39.48691],[-0.34175,39.48689],[-0.34147,39.48681],[-0.34125,39.48672],[-0.34108,39.48662],[-0.34085,39.48653],[-0.34044,39.48636],[-0.34023,39.4863],[-0.33996,39.48619],[-0.33981,39.48615],[-0.33969,39.48614],[-0.3395,39.48614],[-0.33927,39.48616],[-0.33916,39.48616],[-0.33901,39.48611],[-0.33884,39.48603],[-0.33859,39.486],[-0.33832,39.48597],[-0.33809,39.48593],[-0.33794,39.48591],[-0.33768,39.48591],[-0.33742,39.48591],[-0.33719,39.48594],[-0.33707,39.48598],[-0.33699,39.48603],[-0.3367,39.48623],[-0.33641,39.48642],[-0.33629,39.48654],[-0.33615,39.48674],[-0.33605,39.48689],[-0.33586,39.48716],[-0.33571,39.48729],[-0.3356,39.48734],[-0.33547,39.48739],[-0.33532,39.48744],[-0.33512,39.48748],[-0.3349,39.48752],[-0.33462,39.48758],[-0.33452,39.4876],[-0.33443,39.48765],[-0.33427,39.48772],[-0.33422,39.48774],[-0.33418,39.4877],[-0.33401,39.48758],[-0.33379,39.4874],[-0.33349,39.48718],[-0.33335,39.48707],[-0.33329,39.48701],[-0.33317,39.48689],[-0.33302,39.48681],[-0.33279,39.48666],[-0.33263,39.48653],[-0.33257,39.48646],[-0.33248,39.48637],[-0.3324,39.48629],[-0.33233,39.48626],[-0.33222,39.48621],[-0.33218,39.48618],[-0.33212,39.48615],[-0.3321,39.48611],[-0.3321,39.48604],[-0.33211,39.48598],[-0.3321,39.48588],[-0.33208,39.48582],[-0.33207,39.48581],[-0.33206,39.4858],[-0.33205,39.48579],[-0.33202,39.48579],[-0.33186,39.48576],[-0.33182,39.48575],[-0.3317,39.48571],[-0.33167,39.48571],[-0.33166,39.4857],[-0.33166,39.48569],[-0.33165,39.48566],[-0.33165,39.48565],[-0.33165,39.48564],[-0.33164,39.48562],[-0.33163,39.48562],[-0.3316,39.48561],[-0.33157,39.48561],[-0.33152,39.4856],[-0.33151,39.48561],[-0.33151,39.48561]]]}},{"type":"Feature","properties":{"name":"la malva-rosa"},"geometry":{"type":"Polygon","coordinates":[[[-0.33151,39.48561],[-0.3315,39.48561],[-0.33139,39.48559],[-0.33129,39.48558],[-0.33113,39.48554],[-0.33106,39.48551],[-0.33101,39.48548],[-0.33085,39.48542],[-0.33076,39.48536],[-0.3307,39.48531],[-0.33062,39.48523],[-0.33052,39.48513],[-0.33041,39.48502],[-0.3303,39.48496],[-0.33023,39.48493],[-0.33013,39.4849],[-0.33001,39.48486],[-0.32988,39.48483],[-0.32978,39.4848],[-0.32965,39.48477],[-0.32953,39.48473],[-0.32934,39.48467],[-0.32921,39.48463],[-0.32917,39.48461],[-0.32884,39.48451],[-0.32839,39.48436],[-0.32778,39.48419],[-0.32773,39.48419],[-0.32755,39.48417],[-0.32727,39.48416],[-0.32711,39.48417],[-0.32671,39.48419],[-0.32659,39.48419],[-0.32647,39.48417],[-0.32646,39.48417],[-0.32645,39.48417],[-0.32641,39.48415],[-0.32632,39.48414],[-0.32621,39.48414],[-0.32564,39.48412],[-0.32543,39.48413],[-0.32536,39.48412],[-0.32523,39.48409],[-0.32506,39.48401],[-0.32487,39.4838],[-0.32463,39.48354],[-0.32451,39.4834],[-0.32427,39.47998],[-0.32432,39.47826],[-0.32428,39.47565],[-0.32457,39.47456],[-0.32646,39.47458],[-0.3277,39.47475],[-0.32871,39.4751],[-0.32992,39.47546],[-0.33338,39.47641],[-0.33282,39.47919],[-0.33254,39.48046],[-0.33151,39.48561]]]}},{"type":"Feature","properties":{"name":"la vega baixa"},"geometry":{"type":"Polygon","coordinates":[[[-0.34847,39.47826],[-0.34856,39.47732],[-0.34635,39.47734],[-0.34705,39.47559],[-0.34709,39.47549],[-0.34776,39.47397],[-0.34944,39.47443],[-0.35059,39.47477],[-0.35248,39.47545],[-0.35375,39.47581],[-0.35274,39.47799],[-0.35151,39.47761],[-0.35126,39.4782],[-0.35029,39.47823],[-0.34847,39.47826]]]}},{"type":"Feature","properties":{"name":"aiora"},"geometry":{"type":"Polygon","coordinates":[[[-0.34836,39.46966],[-0.34702,39.46929],[-0.34572,39.46891],[-0.34478,39.46864],[-0.34439,39.46853],[-0.34434,39.46864],[-0.34408,39.46875],[-0.34371,39.46865],[-0.34357,39.46848],[-0.34353,39.46831],[-0.34178,39.46782],[-0.33543,39.46595],[-0.3365,39.46367],[-0.33701,39.46304],[-0.33775,39.46237],[-0.33854,39.46176],[-0.34048,39.46231],[-0.34153,39.46263],[-0.34403,39.46337],[-0.34622,39.46404],[-0.34726,39.46435],[-0.34826,39.46466],[-0.34878,39.46481],[-0.35014,39.46522],[-0.35122,39.46554],[-0.35032,39.46783],[-0.34985,39.46903],[-0.34875,39.46871],[-0.34836,39.46966]]]}},{"type":"Feature","properties":{"name":"ciutat jardi"},"geometry":{"type":"Polygon","coordinates":[[[-0.34709,39.47549],[-0.34144,39.47379],[-0.34,39.47337],[-0.3404,39.47254],[-0.3394,39.47227],[-0.33975,39.47156],[-0.34196,39.47223],[-0.34264,39.47083],[-0.34305,39.46997],[-0.34371,39.46865],[-0.34408,39.46875],[-0.34434,39.46864],[-0.34439,39.46853],[-0.34478,39.46864],[-0.34572,39.46891],[-0.34702,39.46929],[-0.34836,39.46966],[-0.34939,39.46996],[-0.34911,39.47067],[-0.34885,39.47131],[-0.34872,39.47165],[-0.34813,39.4731],[-0.34776,39.47397],[-0.34709,39.47549]]]}},{"type":"Feature","properties":{"name":"natzaret"},"geometry":{"type":"Polygon","coordinates":[[[-0.33459,39.45478],[-0.33326,39.45487],[-0.33241,39.45488],[-0.33089,39.45406],[-0.33161,39.45329],[-0.3271,39.44823],[-0.32735,39.44629],[-0.33322,39.44012],[-0.33568,39.43495],[-0.33653,39.43498],[-0.33663,39.43602],[-0.33659,39.43692],[-0.33614,39.44069],[-0.33591,39.44294],[-0.33579,39.44412],[-0.33573,39.44495],[-0.33555,39.44656],[-0.33547,39.44741],[-0.33528,39.4484],[-0.33561,39.44844],[-0.33543,39.44945],[-0.33523,39.45065],[-0.33491,39.45263],[-0.33489,39.45383],[-0.33459,39.45478]]]}},{"type":"Feature","properties":{"name":"la punta"},"geometry":{"type":"Polygon","coordinates":[[[-0.33605,39.42634],[-0.33685,39.42636],[-0.33764,39.42657],[-0.34608,39.42953],[-0.34896,39.43054],[-0.35114,39.43127],[-0.35541,39.43269],[-0.3564,39.43302],[-0.35908,39.43392],[-0.36139,39.43467],[-0.36213,39.43481],[-0.36556,39.43514],[-0.37017,39.43552],[-0.36954,39.44127],[-0.36951,39.44148],[-0.36554,39.44099],[-0.36544,39.44138],[-0.36538,39.4415],[-0.36539,39.44157],[-0.36545,39.44161],[-0.36538,39.44191],[-0.36483,39.44175],[-0.3648,39.44204],[-0.36469,39.44252],[-0.36447,39.44306],[-0.36581,39.44339],[-0.36573,39.44373],[-0.36552,39.44437],[-0.36532,39.44556],[-0.36513,39.44575],[-0.36481,39.44562],[-0.36473,39.44566],[-0.36461,39.44587],[-0.36444,39.44609],[-0.36452,39.44636],[-0.3647,39.44648],[-0.36491,39.44657],[-0.3653,39.44673],[-0.36581,39.4469],[-0.36623,39.44707],[-0.36628,39.44708],[-0.36631,39.44709],[-0.35173,39.45333],[-0.34827,39.45229],[-0.34708,39.45196],[-0.34682,39.45222],[-0.3466,39.45244],[-0.34557,39.45404],[-0.34485,39.45392],[-0.34381,39.45382],[-0.34301,39.45382],[-0.34169,39.45411],[-0.33459,39.45478],[-0.33489,39.45383],[-0.33491,39.45263],[-0.33523,39.45065],[-0.33543,39.44945],[-0.33561,39.44844],[-0.33528,39.4484],[-0.33547,39.44741],[-0.33555,39.44656],[-0.33573,39.44495],[-0.33579,39.44412],[-0.33591,39.44294],[-0.33614,39.44069],[-0.33659,39.43692],[-0.33663,39.43602],[-0.33653,39.43498],[-0.33623,39.43187],[-0.33612,39.42931],[-0.33595,39.42937],[-0.33567,39.42952],[-0.33551,39.42968],[-0.33545,39.42978],[-0.33541,39.42998],[-0.33536,39.43002],[-0.33554,39.42838],[-0.33564,39.42792],[-0.33574,39.42768],[-0.33585,39.42758],[-0.33593,39.42746],[-0.33604,39.42743],[-0.33605,39.42634]]]}},{"type":"Feature","properties":{"name":"el grau"},"geometry":{"type":"Polygon","coordinates":[[[-0.33283,39.42866],[-0.33282,39.42834],[-0.33273,39.42828],[-0.33027,39.42836],[-0.33027,39.42827],[-0.33272,39.4282],[-0.33281,39.42814],[-0.33275,39.42702],[-0.3327,39.42703],[-0.3327,39.427],[-0.33276,39.427],[-0.33275,39.42693],[-0.33064,39.42615],[-0.32969,39.42604],[-0.3297,39.42634],[-0.32964,39.42639],[-0.32958,39.42641],[-0.32956,39.4264],[-0.3295,39.42639],[-0.32944,39.42637],[-0.32942,39.42635],[-0.32941,39.42601],[-0.32658,39.42571],[-0.32656,39.42587],[-0.32653,39.42592],[-0.3265,39.42594],[-0.32647,39.42596],[-0.32643,39.42598],[-0.3264,39.42599],[-0.32635,39.426],[-0.32632,39.426],[-0.32625,39.42599],[-0.32623,39.42598],[-0.32616,39.42594],[-0.32613,39.42591],[-0.32611,39.42588],[-0.3261,39.42585],[-0.32609,39.42582],[-0.3261,39.42578],[-0.32618,39.42562],[-0.32621,39.42557],[-0.32623,39.42556],[-0.32624,39.42555],[-0.3263,39.42553],[-0.32632,39.42552],[-0.32635,39.42552],[-0.32636,39.42552],[-0.33051,39.42594],[-0.3306,39.42595],[-0.33068,39.42596],[-0.33077,39.42599],[-0.33082,39.42601],[-0.33298,39.4268],[-0.33302,39.42682],[-0.33306,39.42682],[-0.3331,39.4268],[-0.33314,39.42677],[-0.33318,39.42675],[-0.33325,39.42675],[-0.33327,39.42676],[-0.3333,39.42677],[-0.33383,39.42698],[-0.33397,39.42704],[-0.33416,39.42676],[-0.33561,39.42729],[-0.33605,39.42634],[-0.33604,39.42743],[-0.33593,39.42746],[-0.33585,39.42758],[-0.33574,39.42768],[-0.33564,39.42792],[-0.33554,39.42838],[-0.33536,39.43002],[-0.33541,39.42998],[-0.33545,39.42978],[-0.33551,39.42968],[-0.33567,39.42952],[-0.33595,39.42937],[-0.33612,39.42931],[-0.33623,39.43187],[-0.33653,39.43498],[-0.33568,39.43495],[-0.33322,39.44012],[-0.32735,39.44629],[-0.3271,39.44823],[-0.33161,39.45329],[-0.33089,39.45406],[-0.33241,39.45488],[-0.33326,39.45487],[-0.33459,39.45478],[-0.34169,39.45411],[-0.34083,39.45784],[-0.34062,39.45825],[-0.34007,39.46007],[-0.3399,39.46045],[-0.33985,39.46056],[-0.33943,39.46108],[-0.33854,39.46176],[-0.33775,39.46237],[-0.33701,39.46304],[-0.3365,39.46367],[-0.33419,39.46328],[-0.33116,39.46293],[-0.33016,39.46282],[-0.329,39.46292],[-0.3273,39.46309],[-0.32421,39.46305],[-0.32261,39.46308],[-0.3224,39.4631],[-0.32113,39.46309],[-0.32008,39.46303],[-0.31174,39.45114],[-0.3117,39.45112],[-0.31167,39.45109],[-0.31164,39.45108],[-0.3116,39.45106],[-0.31156,39.45102],[-0.31155,39.45099],[-0.31152,39.45097],[-0.31151,39.45096],[-0.31148,39.45095],[-0.31146,39.45093],[-0.31108,39.45093],[-0.30892,39.45093],[-0.30823,39.45093],[-0.30763,39.45084],[-0.30749,39.45082],[-0.30684,39.45061],[-0.30559,39.45021],[-0.30393,39.44967],[-0.30255,39.44922],[-0.30246,39.44928],[-0.30243,39.4493],[-0.30237,39.44934],[-0.30229,39.44935],[-0.30222,39.44934],[-0.30212,39.44929],[-0.30205,39.44925],[-0.30201,39.44922],[-0.30198,39.44918],[-0.30197,39.44914],[-0.30196,39.4491],[-0.30219,39.43413],[-0.3022,39.43398],[-0.30224,39.43389],[-0.30232,39.43379],[-0.30244,39.43369],[-0.30259,39.43363],[-0.3028,39.4336],[-0.30302,39.43363],[-0.30313,39.43367],[-0.30324,39.43372],[-0.30334,39.4338],[-0.30338,39.43389],[-0.30338,39.43401],[-0.30334,39.43423],[-0.30328,39.43426],[-0.30311,39.43427],[-0.30296,39.43427],[-0.30288,39.4343],[-0.30282,39.43435],[-0.30266,39.44282],[-0.30263,39.4447],[-0.30346,39.44472],[-0.30377,39.44473],[-0.30379,39.44473],[-0.30381,39.44474],[-0.30382,39.44476],[-0.30382,39.44486],[-0.30382,39.44496],[-0.30382,39.44505],[-0.30383,39.44508],[-0.30384,39.44511],[-0.30384,39.44512],[-0.30383,39.44513],[-0.30383,39.44521],[-0.30382,39.44535],[-0.30382,39.44545],[-0.30382,39.4455],[-0.30383,39.44552],[-0.30391,39.44552],[-0.30394,39.44552],[-0.30399,39.44553],[-0.30401,39.44554],[-0.30406,39.44554],[-0.30406,39.44551],[-0.30428,39.44551],[-0.30427,39.44563],[-0.30424,39.44563],[-0.30406,39.44563],[-0.30405,39.4456],[-0.304,39.4456],[-0.30399,39.44561],[-0.30396,39.44561],[-0.30383,39.44561],[-0.30381,39.44651],[-0.30381,39.44679],[-0.30381,39.4469],[-0.30384,39.44697],[-0.30389,39.44702],[-0.30392,39.44704],[-0.30398,39.44706],[-0.30402,39.44707],[-0.30409,39.44708],[-0.30418,39.44708],[-0.30501,39.44708],[-0.30633,39.44709],[-0.30691,39.4471],[-0.30744,39.4471],[-0.30756,39.4471],[-0.30758,39.44707],[-0.30761,39.44701],[-0.30764,39.44699],[-0.30766,39.44696],[-0.3077,39.44693],[-0.30772,39.44692],[-0.30806,39.44634],[-0.30842,39.44571],[-0.30993,39.44299],[-0.31034,39.44224],[-0.31038,39.44218],[-0.3104,39.44215],[-0.31042,39.44213],[-0.31334,39.44187],[-0.31334,39.44184],[-0.31339,39.44184],[-0.3134,39.44185],[-0.31341,39.44191],[-0.3134,39.44193],[-0.31325,39.44195],[-0.312,39.44206],[-0.31184,39.44207],[-0.31187,39.44228],[-0.31194,39.44256],[-0.31199,39.44261],[-0.31242,39.44278],[-0.31282,39.44292],[-0.31052,39.44704],[-0.31007,39.44785],[-0.30969,39.44772],[-0.30967,39.44774],[-0.30956,39.44775],[-0.30949,39.44776],[-0.30933,39.44778],[-0.30915,39.44781],[-0.30901,39.44785],[-0.30884,39.44791],[-0.3087,39.44797],[-0.30861,39.44802],[-0.30846,39.44813],[-0.30835,39.44822],[-0.30829,39.4483],[-0.30823,39.44838],[-0.30818,39.44845],[-0.30813,39.44856],[-0.3081,39.44862],[-0.30806,39.4488],[-0.30805,39.44894],[-0.30805,39.44907],[-0.30805,39.44922],[-0.30805,39.44931],[-0.30804,39.44944],[-0.30804,39.44947],[-0.30804,39.4497],[-0.30804,39.44984],[-0.30807,39.44999],[-0.30814,39.45015],[-0.30825,39.45031],[-0.30837,39.45043],[-0.30849,39.45052],[-0.30862,39.45058],[-0.30881,39.45066],[-0.30888,39.45068],[-0.30895,39.45071],[-0.30904,39.45073],[-0.30915,39.45074],[-0.3092,39.45074],[-0.30932,39.45076],[-0.30934,39.45077],[-0.30937,39.45079],[-0.30937,39.4508],[-0.30994,39.4508],[-0.30994,39.45017],[-0.30994,39.45008],[-0.31221,39.45007],[-0.31235,39.45076],[-0.31379,39.45072],[-0.31383,39.45067],[-0.31387,39.45057],[-0.31375,39.45054],[-0.31356,39.44895],[-0.31369,39.44892],[-0.3137,39.44858],[-0.3143,39.44852],[-0.31428,39.44825],[-0.31428,39.44793],[-0.31436,39.44762],[-0.31447,39.44732],[-0.31454,39.4471],[-0.3146,39.44706],[-0.31456,39.44699],[-0.31493,39.44684],[-0.32082,39.45516],[-0.32233,39.45729],[-0.3231,39.45838],[-0.32313,39.45843],[-0.32319,39.45851],[-0.32322,39.45855],[-0.32323,39.45857],[-0.32349,39.45846],[-0.32356,39.45856],[-0.32379,39.4587],[-0.32434,39.45817],[-0.32447,39.45804],[-0.32454,39.45799],[-0.32463,39.45793],[-0.32472,39.45789],[-0.32482,39.45786],[-0.3249,39.45785],[-0.32499,39.45785],[-0.32506,39.45785],[-0.32516,39.45788],[-0.32526,39.45793],[-0.32535,39.458],[-0.32543,39.4581],[-0.32546,39.45821],[-0.32546,39.4583],[-0.32544,39.45838],[-0.3254,39.45846],[-0.32532,39.45854],[-0.32485,39.45898],[-0.32412,39.45969],[-0.32431,39.45981],[-0.3243,39.4599],[-0.32408,39.45999],[-0.32446,39.46053],[-0.32507,39.46027],[-0.3252,39.46045],[-0.32458,39.46071],[-0.32502,39.46133],[-0.32514,39.46148],[-0.32519,39.46153],[-0.32553,39.46097],[-0.32556,39.46099],[-0.32525,39.4615],[-0.32524,39.46152],[-0.32559,39.46164],[-0.32573,39.46141],[-0.32591,39.46148],[-0.32596,39.4615],[-0.32585,39.46168],[-0.32588,39.46179],[-0.32588,39.46184],[-0.32597,39.46184],[-0.32597,39.46182],[-0.326,39.46183],[-0.32599,39.46195],[-0.32642,39.46198],[-0.32644,39.4618],[-0.32861,39.46196],[-0.32863,39.46172],[-0.32867,39.46172],[-0.32869,39.46171],[-0.32873,39.4617],[-0.32877,39.4617],[-0.32895,39.46171],[-0.32906,39.4617],[-0.32918,39.46168],[-0.32931,39.46165],[-0.32941,39.46161],[-0.3295,39.46157],[-0.32955,39.46154],[-0.32958,39.46152],[-0.32962,39.46151],[-0.32963,39.46151],[-0.32979,39.46161],[-0.33022,39.46124],[-0.33102,39.46054],[-0.33126,39.46032],[-0.33133,39.46025],[-0.33112,39.46011],[-0.33118,39.45993],[-0.33142,39.45982],[-0.33061,39.45883],[-0.33086,39.45871],[-0.33087,39.4587],[-0.33005,39.45771],[-0.3303,39.45759],[-0.32989,39.45709],[-0.32974,39.45693],[-0.32955,39.4568],[-0.32801,39.45593],[-0.32655,39.45735],[-0.32654,39.45735],[-0.32651,39.45737],[-0.3265,39.45738],[-0.32646,39.45742],[-0.32644,39.45743],[-0.32639,39.45746],[-0.32635,39.45747],[-0.32632,39.45749],[-0.32628,39.4575],[-0.32613,39.45752],[-0.32604,39.45752],[-0.32591,39.45749],[-0.32581,39.45745],[-0.32577,39.45742],[-0.32571,39.45739],[-0.3257,39.45737],[-0.32566,39.45733],[-0.32564,39.4573],[-0.32562,39.45728],[-0.32561,39.45724],[-0.32559,39.45719],[-0.32559,39.45718],[-0.32558,39.45714],[-0.32558,39.45711],[-0.32558,39.45708],[-0.32559,39.45704],[-0.3256,39.45701],[-0.32561,39.45697],[-0.32563,39.45694],[-0.32565,39.45691],[-0.32567,39.45689],[-0.3257,39.45685],[-0.32572,39.45684],[-0.32582,39.45674],[-0.32603,39.45655],[-0.32693,39.45567],[-0.32702,39.45559],[-0.32684,39.45548],[-0.32693,39.45531],[-0.32285,39.45402],[-0.32291,39.4539],[-0.3229,39.45388],[-0.3229,39.45386],[-0.32291,39.45384],[-0.32294,39.45376],[-0.32305,39.45356],[-0.32308,39.45349],[-0.3231,39.45346],[-0.32311,39.45344],[-0.32314,39.45343],[-0.32318,39.45341],[-0.3232,39.45341],[-0.32327,39.4534],[-0.32329,39.4534],[-0.32379,39.4534],[-0.32381,39.4534],[-0.32383,39.45336],[-0.32382,39.45335],[-0.32386,39.45321],[-0.32389,39.45322],[-0.32396,39.45298],[-0.32394,39.45297],[-0.32396,39.45291],[-0.32527,39.45315],[-0.3253,39.45311],[-0.32531,39.45311],[-0.32534,39.45312],[-0.32535,39.4531],[-0.32633,39.45341],[-0.32649,39.45325],[-0.3265,39.45323],[-0.32546,39.4529],[-0.32546,39.45289],[-0.32544,39.45287],[-0.32542,39.45286],[-0.32558,39.45257],[-0.32555,39.45254],[-0.32556,39.45252],[-0.32559,39.45251],[-0.32597,39.45263],[-0.32626,39.45207],[-0.32623,39.45192],[-0.32347,39.45105],[-0.3236,39.45082],[-0.32347,39.45078],[-0.32348,39.45077],[-0.32344,39.45076],[-0.32181,39.45025],[-0.32068,39.44989],[-0.32064,39.44987],[-0.32058,39.44985],[-0.32139,39.44835],[-0.32162,39.44842],[-0.32148,39.44867],[-0.32525,39.44988],[-0.32536,39.44967],[-0.32565,39.44964],[-0.32506,39.44615],[-0.31861,39.4441],[-0.31871,39.44389],[-0.31869,39.44344],[-0.31777,39.44344],[-0.31774,39.44356],[-0.31766,39.44384],[-0.31778,39.44386],[-0.31774,39.44396],[-0.31752,39.44393],[-0.31756,39.44382],[-0.31763,39.44383],[-0.31774,39.44344],[-0.31627,39.44344],[-0.31626,39.44348],[-0.3161,39.44347],[-0.31609,39.44336],[-0.31882,39.44336],[-0.31884,39.44336],[-0.31889,39.44328],[-0.31893,39.44322],[-0.31895,39.44316],[-0.31897,39.44313],[-0.31899,39.4431],[-0.319,39.44308],[-0.31903,39.44303],[-0.3191,39.44288],[-0.31915,39.4428],[-0.31917,39.44275],[-0.31925,39.44259],[-0.3193,39.44251],[-0.31931,39.4425],[-0.31935,39.44241],[-0.31941,39.44231],[-0.31946,39.44223],[-0.31953,39.44208],[-0.31964,39.44191],[-0.31972,39.44184],[-0.31979,39.4418],[-0.31996,39.44176],[-0.32004,39.44175],[-0.32014,39.44176],[-0.32024,39.44178],[-0.32032,39.44181],[-0.32042,39.44185],[-0.32073,39.44195],[-0.32091,39.442],[-0.32103,39.44205],[-0.32138,39.44215],[-0.32201,39.44235],[-0.32219,39.44241],[-0.32224,39.44243],[-0.32244,39.44249],[-0.32278,39.4426],[-0.32313,39.44272],[-0.32356,39.44285],[-0.32363,39.44288],[-0.32586,39.44353],[-0.32666,39.444],[-0.327,39.44434],[-0.32713,39.4445],[-0.3279,39.44414],[-0.32802,39.44408],[-0.32806,39.44405],[-0.32801,39.44397],[-0.32765,39.44362],[-0.3275,39.44352],[-0.32737,39.44339],[-0.32709,39.44319],[-0.32667,39.44296],[-0.32639,39.44284],[-0.32577,39.44263],[-0.32552,39.44254],[-0.3209,39.4411],[-0.3208,39.44106],[-0.32073,39.44102],[-0.32069,39.44099],[-0.32066,39.44096],[-0.32063,39.44092],[-0.32061,39.4409],[-0.3206,39.44087],[-0.32058,39.44084],[-0.32055,39.44076],[-0.32055,39.44073],[-0.32055,39.44069],[-0.32055,39.44065],[-0.32056,39.44061],[-0.32056,39.44059],[-0.32057,39.44056],[-0.32059,39.44053],[-0.32188,39.4381],[-0.328,39.44009],[-0.33041,39.43564],[-0.33011,39.43553],[-0.3303,39.4352],[-0.31488,39.43017],[-0.31469,39.43052],[-0.3144,39.43043],[-0.31433,39.43054],[-0.31417,39.43049],[-0.31424,39.43037],[-0.31426,39.43033],[-0.31412,39.4303],[-0.31394,39.43027],[-0.31384,39.43029],[-0.31373,39.43035],[-0.31364,39.43045],[-0.31336,39.43073],[-0.31263,39.43146],[-0.31199,39.43212],[-0.31157,39.43252],[-0.31152,39.43258],[-0.31451,39.43498],[-0.31458,39.43499],[-0.3147,39.43505],[-0.31475,39.43511],[-0.31477,39.43519],[-0.31475,39.43527],[-0.31468,39.43535],[-0.31458,39.43541],[-0.31448,39.43543],[-0.31435,39.43542],[-0.31432,39.43541],[-0.31425,39.43538],[-0.3142,39.43535],[-0.30977,39.4318],[-0.30941,39.43143],[-0.30918,39.43107],[-0.30907,39.43075],[-0.30902,39.43042],[-0.30903,39.43013],[-0.3091,39.42981],[-0.30919,39.4296],[-0.31248,39.42352],[-0.31261,39.42333],[-0.3127,39.42323],[-0.31276,39.42318],[-0.31289,39.42308],[-0.31302,39.42301],[-0.31318,39.42293],[-0.31335,39.42286],[-0.31353,39.42282],[-0.31374,39.42279],[-0.31398,39.42278],[-0.31414,39.4228],[-0.3144,39.42285],[-0.3145,39.42288],[-0.31923,39.42442],[-0.32338,39.42579],[-0.32358,39.42582],[-0.32368,39.42581],[-0.3238,39.42577],[-0.32393,39.42568],[-0.32402,39.42554],[-0.32419,39.42522],[-0.3245,39.42467],[-0.32493,39.4244],[-0.32514,39.42435],[-0.32521,39.42436],[-0.32533,39.42442],[-0.32539,39.4245],[-0.32539,39.42457],[-0.32536,39.42465],[-0.32531,39.4247],[-0.32524,39.42473],[-0.32522,39.42474],[-0.3251,39.42475],[-0.32487,39.42489],[-0.32438,39.42579],[-0.32421,39.42611],[-0.32428,39.42624],[-0.3289,39.42773],[-0.32946,39.42748],[-0.32946,39.4271],[-0.32949,39.42705],[-0.32955,39.42703],[-0.32964,39.42703],[-0.32971,39.42707],[-0.32973,39.4271],[-0.32981,39.42915],[-0.32985,39.43037],[-0.32988,39.43047],[-0.32996,39.43063],[-0.33002,39.43071],[-0.33015,39.43084],[-0.33027,39.43093],[-0.33041,39.43101],[-0.33056,39.43108],[-0.33069,39.43112],[-0.33158,39.43141],[-0.33271,39.43179],[-0.33277,39.43179],[-0.33287,39.43173],[-0.33289,39.4317],[-0.33331,39.43168],[-0.33331,39.43163],[-0.3333,39.4316],[-0.33289,39.43162],[-0.33288,39.43147],[-0.33286,39.43148],[-0.3328,39.4301],[-0.33067,39.43012],[-0.33061,39.4301],[-0.3306,39.43009],[-0.33058,39.43008],[-0.33055,39.43005],[-0.33054,39.43003],[-0.33054,39.42999],[-0.33056,39.42988],[-0.33065,39.42983],[-0.33083,39.42983],[-0.33085,39.42984],[-0.33087,39.42985],[-0.3309,39.42993],[-0.33173,39.4299],[-0.33276,39.4294],[-0.33287,39.42939],[-0.33287,39.42929],[-0.3331,39.42928],[-0.33309,39.42923],[-0.33287,39.42924],[-0.33285,39.42895],[-0.33279,39.42895],[-0.33279,39.42892],[-0.33284,39.42892],[-0.33284,39.42876],[-0.33278,39.42876],[-0.33278,39.42867],[-0.33283,39.42866]]]}},{"type":"Feature","properties":{"name":"russafa"},"geometry":{"type":"Polygon","coordinates":[[[-0.37653,39.46735],[-0.37492,39.46713],[-0.37446,39.46613],[-0.37385,39.46496],[-0.37181,39.46451],[-0.36978,39.46406],[-0.36829,39.46374],[-0.36669,39.4634],[-0.36501,39.46302],[-0.36333,39.46266],[-0.36251,39.46251],[-0.36501,39.46142],[-0.36525,39.46133],[-0.36612,39.46096],[-0.36628,39.4609],[-0.36827,39.46005],[-0.36924,39.45963],[-0.37144,39.45873],[-0.37397,39.45766],[-0.37577,39.45692],[-0.37718,39.45636],[-0.37843,39.45583],[-0.37984,39.45523],[-0.38124,39.45463],[-0.37873,39.46131],[-0.37863,39.46157],[-0.37808,39.46304],[-0.37686,39.46643],[-0.37653,39.46735]]]}},{"type":"Feature","properties":{"name":"gran via"},"geometry":{"type":"Polygon","coordinates":[[[-0.3624,39.46838],[-0.36177,39.4672],[-0.36107,39.46591],[-0.36015,39.46414],[-0.35997,39.46343],[-0.36251,39.46251],[-0.36333,39.46266],[-0.36501,39.46302],[-0.36669,39.4634],[-0.36829,39.46374],[-0.36978,39.46406],[-0.37181,39.46451],[-0.37385,39.46496],[-0.37121,39.46607],[-0.3702,39.46649],[-0.36917,39.46693],[-0.36807,39.46739],[-0.36693,39.46787],[-0.36578,39.46836],[-0.36313,39.46942],[-0.3624,39.46838]]]}},{"type":"Feature","properties":{"name":"montolivet"},"geometry":{"type":"Polygon","coordinates":[[[-0.36251,39.46251],[-0.35997,39.46343],[-0.35915,39.46222],[-0.35897,39.46191],[-0.35788,39.46008],[-0.359,39.45969],[-0.35911,39.45946],[-0.35839,39.45904],[-0.35882,39.45854],[-0.36013,39.45804],[-0.36132,39.45755],[-0.36315,39.45678],[-0.3642,39.45633],[-0.36676,39.45528],[-0.36736,39.45623],[-0.36796,39.45709],[-0.368,39.45718],[-0.36838,39.45796],[-0.36855,39.45829],[-0.3688,39.45883],[-0.36924,39.45963],[-0.36827,39.46005],[-0.36628,39.4609],[-0.36612,39.46096],[-0.36525,39.46133],[-0.36501,39.46142],[-0.36251,39.46251]]]}},{"type":"Feature","properties":{"name":"la fontsanta"},"geometry":{"type":"Polygon","coordinates":[[[-0.41293,39.46313],[-0.41291,39.46316],[-0.4129,39.46318],[-0.41289,39.46321],[-0.4129,39.46329],[-0.41287,39.46333],[-0.4128,39.46342],[-0.41274,39.46351],[-0.4127,39.46361],[-0.41265,39.46371],[-0.41264,39.46374],[-0.41264,39.46376],[-0.41263,39.46381],[-0.41259,39.46385],[-0.41257,39.46388],[-0.41253,39.46392],[-0.41253,39.46397],[-0.41252,39.464],[-0.41247,39.46403],[-0.41244,39.46407],[-0.41242,39.46412],[-0.41241,39.46419],[-0.4124,39.46427],[-0.41237,39.46438],[-0.4123,39.46452],[-0.41228,39.46458],[-0.4122,39.46476],[-0.41214,39.46491],[-0.41212,39.46493],[-0.4121,39.46497],[-0.41205,39.46511],[-0.41205,39.46514],[-0.41204,39.4652],[-0.41203,39.46523],[-0.412,39.46528],[-0.41194,39.46535],[-0.41181,39.46552],[-0.41175,39.46569],[-0.41165,39.46592],[-0.40993,39.46605],[-0.41033,39.46975],[-0.41015,39.46976],[-0.4075,39.46994],[-0.40629,39.46993],[-0.40555,39.4698],[-0.40581,39.46908],[-0.40611,39.46804],[-0.4056,39.46355],[-0.40559,39.4635],[-0.40569,39.46349],[-0.40842,39.46335],[-0.41293,39.46313]]]}},{"type":"Feature","properties":{"name":"vara de quart"},"geometry":{"type":"Polygon","coordinates":[[[-0.41435,39.45959],[-0.41434,39.45963],[-0.41432,39.4597],[-0.41431,39.45974],[-0.41426,39.45985],[-0.41422,39.45995],[-0.41418,39.46004],[-0.41416,39.46011],[-0.41415,39.46015],[-0.41409,39.46029],[-0.41406,39.46039],[-0.41403,39.46048],[-0.41396,39.46057],[-0.41394,39.46064],[-0.41389,39.4608],[-0.41385,39.46094],[-0.41383,39.46099],[-0.4138,39.46107],[-0.41372,39.46121],[-0.41366,39.46133],[-0.41365,39.46137],[-0.41361,39.46146],[-0.41358,39.46154],[-0.41354,39.4616],[-0.4135,39.46166],[-0.41349,39.4617],[-0.41348,39.46174],[-0.41347,39.46179],[-0.41342,39.4619],[-0.41339,39.46196],[-0.41335,39.46204],[-0.41333,39.46208],[-0.41332,39.46213],[-0.41331,39.46217],[-0.41331,39.46222],[-0.41332,39.46229],[-0.41328,39.4624],[-0.41309,39.46282],[-0.41303,39.46299],[-0.41296,39.4631],[-0.41293,39.46313],[-0.40842,39.46335],[-0.40569,39.46349],[-0.40559,39.4635],[-0.40081,39.46374],[-0.40071,39.46374],[-0.39955,39.4638],[-0.39757,39.4639],[-0.3974,39.46391],[-0.39732,39.4629],[-0.39874,39.46152],[-0.39962,39.46072],[-0.40024,39.46016],[-0.40235,39.45821],[-0.40365,39.45699],[-0.40459,39.45608],[-0.40555,39.45525],[-0.40729,39.45392],[-0.40921,39.45231],[-0.41435,39.45959]]]}},{"type":"Feature","properties":{"name":"patraix"},"geometry":{"type":"Polygon","coordinates":[[[-0.39534,39.46794],[-0.39328,39.46758],[-0.39267,39.46747],[-0.39003,39.46701],[-0.38996,39.46694],[-0.38819,39.46442],[-0.38781,39.4639],[-0.38694,39.46267],[-0.38801,39.46219],[-0.38754,39.46152],[-0.38889,39.45994],[-0.38821,39.45956],[-0.39029,39.45647],[-0.39211,39.45814],[-0.39315,39.45907],[-0.39418,39.46007],[-0.39612,39.46176],[-0.39732,39.4629],[-0.3974,39.46391],[-0.39618,39.46394],[-0.39609,39.46403],[-0.39456,39.46542],[-0.39534,39.46794]]]}},{"type":"Feature","properties":{"name":"tres forques"},"geometry":{"type":"Polygon","coordinates":[[[-0.40527,39.46975],[-0.40275,39.46929],[-0.39959,39.46872],[-0.39654,39.46816],[-0.39534,39.46794],[-0.39456,39.46542],[-0.39609,39.46403],[-0.39618,39.46394],[-0.3974,39.46391],[-0.39757,39.4639],[-0.39955,39.4638],[-0.40071,39.46374],[-0.40081,39.46374],[-0.40559,39.4635],[-0.4056,39.46355],[-0.40611,39.46804],[-0.40581,39.46908],[-0.40555,39.4698],[-0.40527,39.46975]]]}},{"type":"Feature","properties":{"name":"nou moles"},"geometry":{"type":"Polygon","coordinates":[[[-0.40688,39.47274],[-0.40702,39.47351],[-0.40208,39.47448],[-0.40129,39.47465],[-0.39881,39.47512],[-0.39647,39.47556],[-0.39627,39.47565],[-0.3958,39.47492],[-0.39534,39.47428],[-0.39431,39.47288],[-0.3935,39.47176],[-0.39219,39.46996],[-0.39159,39.46914],[-0.39154,39.46908],[-0.39003,39.46701],[-0.39267,39.46747],[-0.39328,39.46758],[-0.39534,39.46794],[-0.39654,39.46816],[-0.39959,39.46872],[-0.40275,39.46929],[-0.40527,39.46975],[-0.4051,39.47049],[-0.40551,39.47254],[-0.40679,39.47267],[-0.40688,39.47274]]]}},{"type":"Feature","properties":{"name":"soternes"},"geometry":{"type":"Polygon","coordinates":[[[-0.41797,39.46918],[-0.41791,39.46921],[-0.41782,39.46924],[-0.41769,39.46928],[-0.41763,39.46929],[-0.41763,39.46928],[-0.41741,39.46934],[-0.41727,39.46938],[-0.4172,39.4694],[-0.41716,39.46941],[-0.41707,39.46945],[-0.41703,39.46947],[-0.41698,39.46951],[-0.41691,39.46954],[-0.41687,39.46956],[-0.41671,39.46968],[-0.41657,39.46971],[-0.41644,39.46972],[-0.41622,39.46972],[-0.41588,39.46977],[-0.41569,39.4699],[-0.41558,39.46996],[-0.41539,39.47004],[-0.41523,39.47011],[-0.41505,39.47021],[-0.4147,39.47035],[-0.41407,39.47066],[-0.41369,39.47081],[-0.41315,39.47097],[-0.4128,39.47107],[-0.41239,39.4712],[-0.41207,39.47139],[-0.41167,39.47181],[-0.41146,39.47209],[-0.41114,39.47242],[-0.41102,39.47252],[-0.41089,39.47254],[-0.41017,39.47258],[-0.40938,39.47263],[-0.4089,39.47266],[-0.40848,39.47272],[-0.40787,39.47275],[-0.40746,39.47278],[-0.40688,39.47274],[-0.40679,39.47267],[-0.40551,39.47254],[-0.4051,39.47049],[-0.40527,39.46975],[-0.40555,39.4698],[-0.40629,39.46993],[-0.4075,39.46994],[-0.41015,39.46976],[-0.41033,39.46975],[-0.41287,39.46956],[-0.41416,39.46946],[-0.41789,39.46918],[-0.41797,39.46918]]]}},{"type":"Feature","properties":{"name":"la llum"},"geometry":{"type":"Polygon","coordinates":[[[-0.41165,39.46592],[-0.41165,39.46593],[-0.41156,39.46614],[-0.41153,39.46626],[-0.41151,39.46633],[-0.41153,39.46636],[-0.41159,39.46641],[-0.41167,39.46644],[-0.41181,39.46649],[-0.41187,39.46652],[-0.41208,39.46659],[-0.41226,39.46668],[-0.41238,39.46673],[-0.4125,39.46676],[-0.41285,39.46679],[-0.41298,39.46678],[-0.41315,39.46676],[-0.41327,39.46675],[-0.41336,39.46674],[-0.4136,39.46673],[-0.41363,39.46673],[-0.41364,39.46671],[-0.41388,39.46675],[-0.41411,39.46684],[-0.41438,39.46691],[-0.41454,39.46696],[-0.41465,39.46702],[-0.41474,39.46708],[-0.41484,39.46714],[-0.41493,39.46721],[-0.41499,39.46726],[-0.41511,39.46731],[-0.41519,39.46735],[-0.41524,39.46742],[-0.4153,39.46748],[-0.41536,39.46759],[-0.41544,39.46765],[-0.41551,39.46766],[-0.41559,39.4677],[-0.41566,39.46771],[-0.41569,39.46778],[-0.4157,39.46784],[-0.41574,39.46788],[-0.41578,39.46793],[-0.41588,39.46797],[-0.41601,39.46801],[-0.41614,39.468],[-0.41621,39.46798],[-0.41629,39.46799],[-0.41641,39.46805],[-0.41658,39.46813],[-0.41678,39.46822],[-0.41691,39.46829],[-0.417,39.46837],[-0.41712,39.46844],[-0.41728,39.46847],[-0.41742,39.46851],[-0.41755,39.46858],[-0.41768,39.46866],[-0.41778,39.46874],[-0.41788,39.46883],[-0.41804,39.46894],[-0.41812,39.469],[-0.41816,39.46902],[-0.41815,39.46903],[-0.41807,39.46911],[-0.41801,39.46916],[-0.41797,39.46918],[-0.41789,39.46918],[-0.41416,39.46946],[-0.41287,39.46956],[-0.41033,39.46975],[-0.40993,39.46605],[-0.41165,39.46592]]]}},{"type":"Feature","properties":{"name":"sant pau"},"geometry":{"type":"Polygon","coordinates":[[[-0.42651,39.495],[-0.42612,39.49507],[-0.42597,39.49506],[-0.42594,39.49549],[-0.42525,39.49557],[-0.42535,39.49599],[-0.42536,39.49648],[-0.42535,39.49701],[-0.42458,39.49708],[-0.42362,39.49652],[-0.42321,39.49648],[-0.42147,39.49656],[-0.41873,39.49669],[-0.41605,39.49682],[-0.41438,39.49686],[-0.4126,39.49648],[-0.41135,39.49602],[-0.40932,39.49356],[-0.40826,39.49216],[-0.4025,39.49459],[-0.40102,39.49255],[-0.39933,39.49024],[-0.39737,39.48754],[-0.39621,39.4861],[-0.39601,39.48585],[-0.39798,39.4849],[-0.39938,39.4843],[-0.40112,39.48355],[-0.40176,39.48332],[-0.39989,39.48075],[-0.39879,39.47923],[-0.39851,39.47885],[-0.39894,39.47868],[-0.40011,39.47835],[-0.39958,39.47694],[-0.39881,39.47512],[-0.40129,39.47465],[-0.40208,39.47448],[-0.40361,39.47418],[-0.40702,39.47351],[-0.40712,39.47358],[-0.40728,39.47363],[-0.40754,39.47367],[-0.40784,39.47374],[-0.40806,39.47378],[-0.40834,39.47383],[-0.40868,39.47394],[-0.40891,39.47402],[-0.40912,39.4741],[-0.40931,39.47422],[-0.40957,39.47437],[-0.4098,39.47453],[-0.40997,39.47464],[-0.41008,39.47474],[-0.41021,39.47489],[-0.41027,39.47503],[-0.41027,39.47514],[-0.41028,39.4753],[-0.41026,39.47547],[-0.41022,39.47563],[-0.41027,39.47572],[-0.41047,39.47581],[-0.41085,39.47591],[-0.41115,39.476],[-0.41132,39.47608],[-0.41143,39.47615],[-0.41158,39.47645],[-0.41177,39.47691],[-0.41194,39.47714],[-0.41211,39.47733],[-0.41223,39.47748],[-0.41232,39.47759],[-0.41237,39.47765],[-0.41239,39.47774],[-0.41238,39.47783],[-0.41237,39.47795],[-0.41237,39.47801],[-0.41239,39.47806],[-0.41242,39.4781],[-0.41247,39.47814],[-0.41254,39.47819],[-0.41261,39.47824],[-0.41269,39.4783],[-0.41275,39.47835],[-0.4128,39.47838],[-0.41288,39.47846],[-0.41293,39.47851],[-0.41304,39.47863],[-0.4131,39.47869],[-0.41319,39.4788],[-0.41321,39.47883],[-0.41327,39.47891],[-0.4132,39.47897],[-0.41299,39.47908],[-0.41286,39.47914],[-0.41259,39.47931],[-0.41241,39.47941],[-0.41217,39.47958],[-0.41192,39.47978],[-0.4116,39.48005],[-0.41144,39.48025],[-0.41132,39.48042],[-0.41116,39.48062],[-0.41103,39.48079],[-0.41075,39.48112],[-0.41055,39.4813],[-0.41117,39.48173],[-0.41161,39.48195],[-0.4119,39.48206],[-0.41213,39.48211],[-0.41228,39.48215],[-0.41256,39.48222],[-0.41291,39.48229],[-0.41314,39.48233],[-0.41339,39.48238],[-0.41351,39.48241],[-0.41376,39.48248],[-0.41415,39.48256],[-0.41472,39.48265],[-0.41521,39.48279],[-0.41559,39.48292],[-0.41581,39.483],[-0.41646,39.48318],[-0.41698,39.48334],[-0.4175,39.48356],[-0.41759,39.4836],[-0.41814,39.48378],[-0.41872,39.48408],[-0.41906,39.48429],[-0.4193,39.48437],[-0.41964,39.48455],[-0.41995,39.48473],[-0.42044,39.48506],[-0.421,39.48543],[-0.4215,39.48568],[-0.4232,39.48679],[-0.42433,39.48729],[-0.42485,39.48761],[-0.42589,39.48792],[-0.42582,39.48802],[-0.42572,39.48819],[-0.42565,39.48831],[-0.42559,39.48839],[-0.42548,39.48857],[-0.4253,39.4889],[-0.42514,39.48883],[-0.42508,39.4888],[-0.42503,39.48877],[-0.42499,39.48875],[-0.42495,39.48875],[-0.42492,39.48876],[-0.42488,39.48878],[-0.42486,39.48885],[-0.42486,39.4889],[-0.42484,39.48896],[-0.42482,39.48903],[-0.42476,39.48919],[-0.42475,39.48933],[-0.42475,39.48945],[-0.42474,39.48953],[-0.42473,39.48963],[-0.42471,39.48972],[-0.42468,39.48979],[-0.42464,39.48999],[-0.4246,39.49013],[-0.42457,39.49029],[-0.42452,39.49039],[-0.42448,39.49052],[-0.42446,39.4906],[-0.42446,39.49063],[-0.42452,39.49068],[-0.42469,39.49076],[-0.42485,39.49083],[-0.42493,39.49086],[-0.42498,39.49085],[-0.425,39.49089],[-0.42471,39.49105],[-0.42449,39.49119],[-0.42463,39.49141],[-0.42483,39.49176],[-0.42494,39.49198],[-0.42514,39.4923],[-0.42533,39.49261],[-0.42553,39.49294],[-0.42571,39.49324],[-0.42584,39.49345],[-0.42582,39.49349],[-0.42586,39.49356],[-0.42592,39.49368],[-0.42597,39.49378],[-0.42601,39.49383],[-0.42603,39.49388],[-0.4261,39.49402],[-0.42615,39.49414],[-0.42624,39.49428],[-0.42629,39.49446],[-0.42635,39.49467],[-0.42645,39.4948],[-0.42648,39.49487],[-0.42655,39.49499],[-0.42651,39.495]]]}},{"type":"Feature","properties":{"name":"la petxina"},"geometry":{"type":"Polygon","coordinates":[[[-0.39047,39.47825],[-0.38996,39.47754],[-0.38944,39.47681],[-0.38865,39.47571],[-0.38821,39.47509],[-0.38785,39.4746],[-0.38777,39.47449],[-0.38758,39.47422],[-0.38705,39.4735],[-0.38593,39.47195],[-0.38748,39.47069],[-0.38864,39.46971],[-0.39009,39.4694],[-0.39149,39.46909],[-0.39154,39.46908],[-0.39159,39.46914],[-0.39219,39.46996],[-0.3935,39.47176],[-0.39431,39.47288],[-0.39534,39.47428],[-0.3958,39.47492],[-0.39627,39.47565],[-0.39447,39.47647],[-0.3922,39.47749],[-0.39129,39.47791],[-0.39066,39.4782],[-0.39047,39.47825]]]}},{"type":"Feature","properties":{"name":"campanar"},"geometry":{"type":"Polygon","coordinates":[[[-0.39012,39.48554],[-0.38989,39.48522],[-0.38912,39.48555],[-0.38796,39.48387],[-0.38884,39.4835],[-0.38785,39.48215],[-0.38615,39.47981],[-0.38671,39.47953],[-0.38737,39.47921],[-0.38856,39.47872],[-0.39047,39.47825],[-0.39066,39.4782],[-0.39129,39.47791],[-0.3922,39.47749],[-0.39447,39.47647],[-0.39627,39.47565],[-0.39647,39.47556],[-0.39881,39.47512],[-0.39958,39.47694],[-0.40011,39.47835],[-0.39894,39.47868],[-0.39851,39.47885],[-0.39879,39.47923],[-0.40176,39.48332],[-0.40112,39.48355],[-0.39798,39.4849],[-0.39601,39.48585],[-0.39525,39.48458],[-0.39258,39.48573],[-0.39122,39.48632],[-0.39065,39.48611],[-0.39047,39.48604],[-0.39012,39.48554]]]}},{"type":"Feature","properties":{"name":"les tendetes"},"geometry":{"type":"Polygon","coordinates":[[[-0.39012,39.48554],[-0.38922,39.48593],[-0.38895,39.48673],[-0.38859,39.48662],[-0.38828,39.48598],[-0.38745,39.48631],[-0.38731,39.4866],[-0.38522,39.48503],[-0.38366,39.48391],[-0.38105,39.48223],[-0.3834,39.48116],[-0.38348,39.48112],[-0.38615,39.47981],[-0.38785,39.48215],[-0.38884,39.4835],[-0.38796,39.48387],[-0.38912,39.48555],[-0.38989,39.48522],[-0.39012,39.48554]]]}},{"type":"Feature","properties":{"name":"cami real"},"geometry":{"type":"Polygon","coordinates":[[[-0.3983,39.45458],[-0.39746,39.45393],[-0.39858,39.45297],[-0.39801,39.45245],[-0.396,39.45078],[-0.39475,39.44987],[-0.39606,39.44797],[-0.39614,39.44759],[-0.39557,39.44755],[-0.39422,39.44754],[-0.39298,39.44762],[-0.3921,39.44765],[-0.39245,39.44671],[-0.39298,39.44536],[-0.39336,39.44439],[-0.39372,39.44343],[-0.3943,39.44192],[-0.39355,39.44189],[-0.3923,39.44224],[-0.39044,39.44234],[-0.38904,39.44234],[-0.38802,39.44209],[-0.38765,39.44304],[-0.38715,39.44431],[-0.38631,39.4464],[-0.38582,39.44784],[-0.3836,39.44729],[-0.38493,39.44354],[-0.38715,39.43719],[-0.38983,39.43751],[-0.39301,39.43835],[-0.39803,39.44044],[-0.40107,39.44281],[-0.40332,39.4449],[-0.40585,39.44764],[-0.40404,39.44955],[-0.40379,39.44996],[-0.40281,39.45084],[-0.4009,39.45252],[-0.3983,39.45458]]]}},{"type":"Feature","properties":{"name":"favara"},"geometry":{"type":"Polygon","coordinates":[[[-0.39032,39.45643],[-0.39086,39.45562],[-0.39171,39.45437],[-0.39195,39.45402],[-0.39256,39.4531],[-0.3935,39.45172],[-0.39475,39.44987],[-0.396,39.45078],[-0.39801,39.45245],[-0.39858,39.45297],[-0.39746,39.45393],[-0.3983,39.45458],[-0.39744,39.45525],[-0.39678,39.45571],[-0.3958,39.45606],[-0.39471,39.45623],[-0.39357,39.45628],[-0.39029,39.45647],[-0.39032,39.45643]]]}},{"type":"Feature","properties":{"name":"sant isidre"},"geometry":{"type":"Polygon","coordinates":[[[-0.3983,39.45458],[-0.4009,39.45252],[-0.40281,39.45084],[-0.40379,39.44996],[-0.40404,39.44955],[-0.40585,39.44764],[-0.40921,39.45231],[-0.40729,39.45392],[-0.40555,39.45525],[-0.40459,39.45608],[-0.40365,39.45699],[-0.40235,39.45821],[-0.3991,39.4558],[-0.39949,39.45547],[-0.3983,39.45458]]]}},{"type":"Feature","properties":{"name":"l'hort de senabre"},"geometry":{"type":"Polygon","coordinates":[[[-0.39032,39.45643],[-0.38863,39.45552],[-0.38725,39.45488],[-0.38697,39.45473],[-0.38554,39.45379],[-0.38447,39.45354],[-0.38467,39.45258],[-0.38689,39.45287],[-0.38774,39.45298],[-0.3885,39.45317],[-0.38867,39.45226],[-0.3888,39.45159],[-0.38886,39.45127],[-0.38932,39.44922],[-0.38961,39.44772],[-0.3921,39.44765],[-0.39298,39.44762],[-0.39422,39.44754],[-0.39557,39.44755],[-0.39614,39.44759],[-0.39606,39.44797],[-0.39475,39.44987],[-0.3935,39.45172],[-0.39256,39.4531],[-0.39195,39.45402],[-0.39171,39.45437],[-0.39086,39.45562],[-0.39032,39.45643]]]}},{"type":"Feature","properties":{"name":"cami fondo"},"geometry":{"type":"Polygon","coordinates":[[[-0.35654,39.4671],[-0.35643,39.46707],[-0.35548,39.46678],[-0.35424,39.46642],[-0.35311,39.46609],[-0.35122,39.46554],[-0.35014,39.46522],[-0.34878,39.46481],[-0.34826,39.46466],[-0.34842,39.46437],[-0.35011,39.46488],[-0.35073,39.46364],[-0.35152,39.46204],[-0.35252,39.46234],[-0.35221,39.46306],[-0.35421,39.46369],[-0.35398,39.4642],[-0.35424,39.46426],[-0.35469,39.46436],[-0.35477,39.4642],[-0.35609,39.46516],[-0.35703,39.46585],[-0.35712,39.46592],[-0.35683,39.46651],[-0.35654,39.4671]]]}},{"type":"Feature","properties":{"name":"na rovella"},"geometry":{"type":"Polygon","coordinates":[[[-0.35839,39.45904],[-0.35801,39.45867],[-0.35863,39.45789],[-0.36044,39.45575],[-0.36167,39.45424],[-0.3626,39.45385],[-0.36237,39.45346],[-0.36495,39.45056],[-0.3659,39.44937],[-0.3669,39.44895],[-0.36646,39.44836],[-0.36793,39.44771],[-0.36826,39.44819],[-0.36941,39.44772],[-0.3695,39.44787],[-0.37054,39.44938],[-0.37097,39.44998],[-0.3716,39.45089],[-0.37113,39.45229],[-0.37135,39.45318],[-0.37081,39.45338],[-0.3689,39.45336],[-0.36887,39.45331],[-0.36803,39.4536],[-0.36852,39.45449],[-0.36676,39.45528],[-0.3642,39.45633],[-0.36315,39.45678],[-0.36132,39.45755],[-0.36013,39.45804],[-0.35882,39.45854],[-0.35839,39.45904]]]}},{"type":"Feature","properties":{"name":"penya-roja"},"geometry":{"type":"Polygon","coordinates":[[[-0.35609,39.46516],[-0.35477,39.4642],[-0.35469,39.46436],[-0.35424,39.46426],[-0.35398,39.4642],[-0.35421,39.46369],[-0.35221,39.46306],[-0.35252,39.46234],[-0.35152,39.46204],[-0.34765,39.46089],[-0.34551,39.46036],[-0.34413,39.46001],[-0.34299,39.45971],[-0.34241,39.45956],[-0.34375,39.45846],[-0.34317,39.45834],[-0.34083,39.45784],[-0.34169,39.45411],[-0.34301,39.45382],[-0.34381,39.45382],[-0.34485,39.45392],[-0.34557,39.45404],[-0.34625,39.45415],[-0.34732,39.45444],[-0.34815,39.45494],[-0.34904,39.45549],[-0.35055,39.4566],[-0.35266,39.45794],[-0.35411,39.45876],[-0.35508,39.45932],[-0.35788,39.46008],[-0.35897,39.46191],[-0.35915,39.46222],[-0.35997,39.46343],[-0.35867,39.46371],[-0.35801,39.46409],[-0.35712,39.46592],[-0.35703,39.46585],[-0.35609,39.46516]]]}},{"type":"Feature","properties":{"name":"la creu del grau"},"geometry":{"type":"Polygon","coordinates":[[[-0.34826,39.46466],[-0.34726,39.46435],[-0.34622,39.46404],[-0.34403,39.46337],[-0.34153,39.46263],[-0.34048,39.46231],[-0.33854,39.46176],[-0.33943,39.46108],[-0.33985,39.46056],[-0.3399,39.46045],[-0.34007,39.46007],[-0.34062,39.45825],[-0.34083,39.45784],[-0.34317,39.45834],[-0.34375,39.45846],[-0.34241,39.45956],[-0.34299,39.45971],[-0.34413,39.46001],[-0.34551,39.46036],[-0.34765,39.46089],[-0.35152,39.46204],[-0.35073,39.46364],[-0.35011,39.46488],[-0.34842,39.46437],[-0.34826,39.46466]]]}},{"type":"Feature","properties":{"name":"ciutat de les arts"},"geometry":{"type":"Polygon","coordinates":[[[-0.35788,39.46008],[-0.35508,39.45932],[-0.35411,39.45876],[-0.35266,39.45794],[-0.35055,39.4566],[-0.34904,39.45549],[-0.34815,39.45494],[-0.34732,39.45444],[-0.34625,39.45415],[-0.34557,39.45404],[-0.3466,39.45244],[-0.34682,39.45222],[-0.34708,39.45196],[-0.34827,39.45229],[-0.35173,39.45333],[-0.36631,39.44709],[-0.36635,39.4471],[-0.36653,39.44711],[-0.36746,39.44714],[-0.36793,39.44771],[-0.36646,39.44836],[-0.3669,39.44895],[-0.3659,39.44937],[-0.36495,39.45056],[-0.36237,39.45346],[-0.3626,39.45385],[-0.36167,39.45424],[-0.36044,39.45575],[-0.35863,39.45789],[-0.35801,39.45867],[-0.35839,39.45904],[-0.35911,39.45946],[-0.359,39.45969],[-0.35788,39.46008]]]}},{"type":"Feature","properties":{"name":"sant francesc"},"geometry":{"type":"Polygon","coordinates":[[[-0.37567,39.47381],[-0.37423,39.47351],[-0.37439,39.4727],[-0.37525,39.47301],[-0.37551,39.47258],[-0.37555,39.47214],[-0.3754,39.47167],[-0.37496,39.47184],[-0.37467,39.47192],[-0.37463,39.47182],[-0.3743,39.47188],[-0.37369,39.47185],[-0.37254,39.47154],[-0.3718,39.47148],[-0.37159,39.4723],[-0.37086,39.47221],[-0.37068,39.47281],[-0.36999,39.47267],[-0.37006,39.47234],[-0.36866,39.47188],[-0.37042,39.47031],[-0.37113,39.46974],[-0.37291,39.4685],[-0.37388,39.46781],[-0.37492,39.46713],[-0.37653,39.46735],[-0.37695,39.46745],[-0.37886,39.46791],[-0.37985,39.46815],[-0.38089,39.46855],[-0.38138,39.46873],[-0.38345,39.47033],[-0.38356,39.47059],[-0.38268,39.47089],[-0.38146,39.47089],[-0.38119,39.47085],[-0.37975,39.47122],[-0.37979,39.472],[-0.37921,39.47182],[-0.37886,39.47156],[-0.37843,39.47138],[-0.37781,39.47091],[-0.37685,39.47222],[-0.37567,39.47381]]]}},{"type":"Feature","properties":{"name":"sant marcel.li"},"geometry":{"type":"Polygon","coordinates":[[[-0.38582,39.44784],[-0.38631,39.4464],[-0.38715,39.44431],[-0.38765,39.44304],[-0.38802,39.44209],[-0.38904,39.44234],[-0.39044,39.44234],[-0.3923,39.44224],[-0.39355,39.44189],[-0.3943,39.44192],[-0.39372,39.44343],[-0.39336,39.44439],[-0.39298,39.44536],[-0.39245,39.44671],[-0.3921,39.44765],[-0.38961,39.44772],[-0.38582,39.44784]]]}},{"type":"Feature","properties":{"name":"els orriols"},"geometry":{"type":"Polygon","coordinates":[[[-0.3672,39.50425],[-0.36767,39.50338],[-0.36829,39.50175],[-0.3686,39.50183],[-0.36928,39.5002],[-0.36813,39.49991],[-0.3691,39.49761],[-0.3678,39.49708],[-0.36824,39.49659],[-0.36634,39.49518],[-0.36663,39.49494],[-0.3674,39.4955],[-0.36769,39.49524],[-0.36812,39.49484],[-0.36782,39.49463],[-0.36836,39.49415],[-0.36725,39.49338],[-0.36805,39.49273],[-0.36915,39.49181],[-0.36831,39.4912],[-0.36903,39.49061],[-0.36881,39.49045],[-0.369,39.49029],[-0.36708,39.48876],[-0.36842,39.48797],[-0.37013,39.48932],[-0.3713,39.49021],[-0.37273,39.49126],[-0.37374,39.49196],[-0.37388,39.49206],[-0.37336,39.49308],[-0.37283,39.49392],[-0.37253,39.49431],[-0.37225,39.49442],[-0.37195,39.49468],[-0.37163,39.49514],[-0.37105,39.49483],[-0.37023,39.49601],[-0.37103,39.49631],[-0.37078,39.49678],[-0.37136,39.49692],[-0.3718,39.49703],[-0.37122,39.49839],[-0.3705,39.4982],[-0.3699,39.50027],[-0.36881,39.50183],[-0.36776,39.50452],[-0.3677,39.50468],[-0.3677,39.50457],[-0.36768,39.50443],[-0.36757,39.50436],[-0.36745,39.50433],[-0.36729,39.50429],[-0.3672,39.50425]]]}},{"type":"Feature","properties":{"name":"la seu"},"geometry":{"type":"Polygon","coordinates":[[[-0.37059,39.47721],[-0.37162,39.47676],[-0.37293,39.47694],[-0.37299,39.47681],[-0.37314,39.47663],[-0.37325,39.47627],[-0.37344,39.4763],[-0.37348,39.47584],[-0.37359,39.47549],[-0.37369,39.47536],[-0.37379,39.4754],[-0.37417,39.47483],[-0.37422,39.47462],[-0.3744,39.47435],[-0.37454,39.47401],[-0.37424,39.47394],[-0.37423,39.47351],[-0.37567,39.47381],[-0.37608,39.47389],[-0.3767,39.47393],[-0.37694,39.47392],[-0.3771,39.47404],[-0.37685,39.47426],[-0.37706,39.47442],[-0.3769,39.47537],[-0.37768,39.47539],[-0.37771,39.47557],[-0.37832,39.47571],[-0.37877,39.47561],[-0.3791,39.47562],[-0.37927,39.47563],[-0.37917,39.47615],[-0.37917,39.47655],[-0.37848,39.47665],[-0.37798,39.47665],[-0.37792,39.47691],[-0.37794,39.47701],[-0.37724,39.47705],[-0.3772,39.47723],[-0.37688,39.47728],[-0.37688,39.47738],[-0.3762,39.4789],[-0.37413,39.47934],[-0.3728,39.47857],[-0.37256,39.47843],[-0.37059,39.47721]]]}}]}